ID_WSER,Owner Name,System Name,City,Province,Latitude,Longitude,System status,CDUID,CDNAME,Y2013,Y2014,Y2015,Y2016,Y2017,Y2018,Y2019,Units
375,Stelco Inc.,Lake Erie,Haldimand County,ON,42.794,-80.109,operational,3528,Haldimand-Norfolk,162.31300000000002,164.763,135.975,125.563,161.70000000000002,202.125,187.645,thousand m3
503,Regional Municipality of Durham,Duffin Creek WPCP,Pickering,ON,43.8156,-79.0484,operational,3518,Durham,125615.302,125187.393,116781.05900000001,116277.13,121734.342,125252.937,124847.107,thousand m3
1412,Bruce Power LP,Bruce Power,Tiverton,ON,44.3233,-81.5875,operational,3541,Bruce,376.6781,411.127,411.6526,389.8714,391.904,353.07450000000006,340.755,thousand m3
1436,The Corporation of the City of Barrie,Water Pollution Control Centre,Barrie,ON,44.3776,-79.692,operational,3543,Simcoe,18676.695,18465.94,17527.87,17707.779,18509.843,18110.898,18197.07,thousand m3
7059,City of Sarnia,Water Pollution Control Centre,Sarnia,ON,42.9528,-82.4065,operational,3538,Lambton,8504.6068,7976.2739,8365.631,9427.261,10084.169,10682.976,11979.806,thousand m3
7391,DEPARTMENT OF NATIONAL DEFENCE,4th Canadian Division Training Centre,Meaford,ON,44.6653,-80.6754,operational,3542,Grey,103.055,96.526,93.426,113.827,113.86500000000001,112.505,106.914,thousand m3
7890,The Corporation of the City of Belleville,Belleville Wastewater Treatment Facility,Belleville,ON,44.1572,-77.3725,operational,3512,Hastings,9264.721,10250.038700000001,8143.523,7614.18,12558.3369,11844.732,12071.088,thousand m3
8469,Canadian Nuclear Laboratories,Chalk River Laboratories,Chalk River,ON,46.0524,-77.3618,operational,3547,Renfrew,207.058,208.80700000000002,210.019,205.702,227.476,210.652,166.038,thousand m3
8493,The Corporation of the Town of Kirkland Lake,Kirkland Lake Wastewater Treatment Plant,Kirkland Lake,ON,48.1372,-80.0363,operational,3554,Timiskaming,2981.938,3228.647,3246.835,2629.072,3309.3116,3332.0829999999996,4116.549,thousand m3
8983,City of Thunder Bay,Water Pollution Control Plant,Thunder Bay,ON,48.3964,-89.2259,operational,3558,Thunder Bay,29879.089,85751.5,29331.59,31344.5,30286.1863,25684.939,26317.148,thousand m3
9220,City of Greater Sudbury,Sudbury Wastewater Treatment Plant,Sudbury,ON,46.4647,-81.0352,operational,3553,Greater Sudbury / Grand Sudbury,23619.100000000002,28160.682,32011.6,22569.554,22400.561,18024.962,22074.527000000002,thousand m3
9281,City of Brockville (Corporation of the),Water Pollution Control Centre,Brockville,ON,44.6015,-75.6621,operational,3507,Leeds and Grenville,5532.572,5985.055399999999,5634.838,5671.4637,7227.6732,6181.8217,6850.210500000001,thousand m3
9389,City of Sault Ste. Marie,West End Water Pollution Control Plant,Sault Ste. Marie,ON,46.5239,-84.4076,operational,3557,Algoma,6569.351000000001,6281.178,5542.9529999999995,5183.883,6378.343,5037.284,6453.539000000001,thousand m3
9390,City of Sault Ste. Marie,East Wastewater Treatment Plant,Sault Ste. Marie,ON,46.5053,-84.2572,operational,3557,Algoma,12547.464,12392.997,10326.361,9755.35,11807.155,9726.786,14969.033000000001,thousand m3
9562,Corporation of the Municipality of Leamington,LEAMINGTON POLLUTION CONTROL CENTRE,Leamington,ON,42.0359,-82.588,operational,3537,Essex,7361.591,6610.6050000000005,6503.04,6694.878,6974.618,7187.49,7551.737,thousand m3
9835,The Regional Municipality of York,Keswick WPCP,Keswick,ON,44.2327,-79.4614,operational,3519,York,4146.109,3563.514,3007.873,3284.462,3775.039,3576.9266000000002,3583.0514000000003,thousand m3
9840,Corporation of the City of Cornwall,Cornwall Wastewater Treatment Plant,Cornwall,ON,45.0291,-74.6787,operational,3501,"Stormont, Dundas and Glengarry",16905.0,16074.048999999999,15125.312,16403.788,19199.398,17661.124,18960.801,thousand m3
9881,DEPARTMENT OF NATIONAL DEFENCE,Canadian Forces Base Borden,Borden,ON,44.3021,-79.8975,operational,3543,Simcoe,1257.673,1229.059,1032.001,1095.772,1244.6480000000001,1298.73,1165.596,thousand m3
9914,City of Kawartha Lakes,Lindsay WPCP,Lindsay,ON,44.39,-78.7439,operational,3516,Kawartha Lakes,5513.755,5369.8150000000005,4738.452,3912.735,5114.483,4487.236,4090.357,thousand m3
9963,Town of Orangeville,Orangeville Water Pollution Control Plant,Orangeville,ON,43.9167,-80.0864,operational,3522,Dufferin,4242.403,4175.188,3738.123,3824.58,4554.443,4241.524,4146.94,thousand m3
9985,City of Peterborough,PTBO WASTE WATER TREATMENT PLANT,Peterborough,ON,44.2771,-78.3183,operational,3515,Peterborough,16078.606,16151.479000000001,14382.516,13882.305,16220.221000000001,14905.457,14955.655,thousand m3
10338,County of Oxford,Woodstock Wastewater Treatment Plant,Woodstock,ON,43.1366,-80.7729,operational,3532,Oxford,8697.15,7383.676,6159.391,7413.814,8399.734,8362.058,8619.056,thousand m3
10411,The Corporation of the City of Kingston,CATARAQUI BAY WASTEWATER TREATMENT,Kingston,ON,44.2136,-76.5516,operational,3510,Frontenac,9731.098,9694.398000000001,9547.449,9535.693,10965.0059,10571.383,10678.222,thousand m3
10555,City of St Thomas,Water Pollution Control Plant,St. Thomas,ON,42.7684,-81.2056,operational,3534,Elgin,6567.22,6229.2970000000005,5240.763,5643.019,5800.614,6355.738,6699.726000000001,thousand m3
10564,Regional Municipality of Waterloo,Kitchener Wastewater Treatment Plant,Kitchener,ON,43.4001,-80.4218,operational,3530,Waterloo,26554.947,27365.0822,25016.4918,23963.81,25133.8756,24898.4635,25060.7359,thousand m3
10565,Regional Municipality of Waterloo,Waterloo Wastewater Treatment Plant,Waterloo,ON,43.4867,-80.5061,operational,3530,Waterloo,18327.067,18056.9567,13314.650000000001,15234.367,16276.525000000001,15944.943000000001,15048.19,thousand m3
10566,Regional Municipality of Waterloo,Galt Wastewater Treatment Plant,Cambridge,ON,43.3386,-80.3161,operational,3530,Waterloo,9068.1833,9028.7576,7712.2299,6715.5193,8770.9162,9080.583,9469.1834,thousand m3
10567,Regional Municipality of Waterloo,Preston Wastewater Treatment Plant,Cambridge,ON,43.3875,-80.3513,operational,3530,Waterloo,3423.518,3458.3789,3190.4152000000004,3285.6863000000003,3454.5992,3516.2187000000004,3617.2999999999997,thousand m3
10568,City of Stratford,STRATFORD WASTE WATER TREATMENT PLANT,Stratford,ON,43.3694,-81.0061,operational,3531,Perth,5356.987,7016.344,5957.254,5952.818,6945.1990000000005,6752.536,6957.5092,thousand m3
10684,The Corporation of the City of Kingston,Ravensview Wastewater Treatment,Kingston,ON,44.2417,-76.4207,operational,3510,Frontenac,21547.599000000002,22234.975000000002,19372.715,20567.793,28503.425,22308.634000000002,27883.374,thousand m3
11004,DEPARTMENT OF NATIONAL DEFENCE,8 Wing Trenton Environmental Management,Astra,ON,44.1041,-77.5432,operational,3512,Hastings,826.625,964.6260000000001,773.2660000000001,755.8100000000001,876.164,820.5450000000001,951.4440000000001,thousand m3
11104,Norfolk County Public Works & Environmental Services,Simcoe Sewage Treatment Plant,Simcoe,ON,42.8285,-80.2959,operational,3528,Haldimand-Norfolk,2661.375,2636.951,2409.423,2323.411,2445.422,2737.098,2627.407,thousand m3
11122,The Regional Municipality of Halton,Georgetown Wastewater Treatment Plant,Halton Hills,ON,43.6404,-79.8788,operational,3524,Halton,6468.71,6391.984,6071.064,5845.51,6088.015,5941.1900000000005,6062.676,thousand m3
11148,The Regional Municipality of Halton,Mid-Halton Wastewater Treatment Plant,Oakville,ON,43.4131,-79.6933,operational,3524,Halton,19076.453,19246.848,19222.506,20854.249,21664.598,22423.983,23661.567,thousand m3
11407,City of Windsor,Lou Romano Water Reclamation Plant,Windsor,ON,42.2823,-83.0815,operational,3537,Essex,55099.2479,49667.8254,48665.6089,50275.7804,51717.8387,58836.718100000006,57349.8924,thousand m3
11440,City of Windsor,Little River Pollution Control Plant 1,Windsor,ON,42.3308,-82.9277,operational,3537,Essex,6898.881,6719.777,6195.891,6924.543,6791.406,7224.707,8239.329,thousand m3
11524,Regional Municipality of Niagara,Port Dalhousie Wastewater Treatment Plant,St. Catharines,ON,43.2024,-79.2607,operational,3526,Niagara,13728.536,12642.245,10988.378,10939.178,12710.29,12809.539,13388.538,thousand m3
11738,Regional Municipality of Niagara,Port Weller Wastewater Treatment Plant,St. Catharines,ON,43.2265,-79.2186,operational,3526,Niagara,13898.852,13037.495,11269.858,10873.694,11460.108,13461.561000000002,14312.054,thousand m3
11920,Regional Municipality of Niagara,Baker Road Wastewater Treatment Plant,Grimsby,ON,43.1834,-79.5365,operational,3526,Niagara,7763.9,7461.573,6406.465,6237.516,7627.338,7290.887000000001,7631.97,thousand m3
11955,Regional Municipality of Niagara,Niagara Falls Wastewater Treatment Plant,Niagara Falls,ON,43.1232,-79.0827,operational,3526,Niagara,16022.499,13420.372,14891.799,13444.164,16309.711000000001,15143.51,15096.305,thousand m3
12234,Regional Municipality of Niagara,Fort Erie Wastewater Treatment Plant,Fort Erie,ON,42.9385,-78.9262,operational,3526,Niagara,4615.525,5226.713,4659.617,4630.403,5475.128000000001,5337.669,5528.432000000001,thousand m3
12313,Regional Municipality of Niagara,Port Colborne Wastewater Treatment Plant,Port Colborne,ON,42.9054,-79.252,operational,3526,Niagara,4686.632,4318.166,4040.175,3411.989,4409.88,4591.807,4917.21,thousand m3
12329,The Regional Municipality of Halton,Milton Wastewater Treatment Plant,Milton,ON,43.5114,-79.8741,decommissioned,3524,Halton,4380.389,4055.55,3752.37,4130.973,4298.682000000001,4405.616,4741.351000000001,thousand m3
12337,The Regional Municipality of Halton,Oakville Southeast Wastewater Treatment Plant,Oakville,ON,43.4822,-79.631,operational,3524,Halton,8440.0,7152.7,6055.173,6333.034000000001,6997.272,6876.008,6764.688,thousand m3
12420,Regional Municipality of Niagara,Welland Wastewater Treatment Plant,Welland,ON,43.0075,-79.2384,operational,3526,Niagara,14818.202,12767.919,11595.69,10989.012,12923.53,12644.84,13555.141,thousand m3
12474,The Regional Municipality of Halton,Oakville Southwest Wastewater Treatment Plant,Oakville,ON,43.4133,-79.6933,operational,3524,Halton,10767.169,9988.987000000001,8927.246000000001,10398.798,11117.033,10342.521,10421.86,thousand m3
12505,City of Owen Sound,Owen Sound WPCP,Owen Sound,ON,44.5846,-80.9326,operational,3542,Grey,4001.53,3144.7634,3899.405,3756.3982,5097.9310000000005,4765.559,5194.568,thousand m3
12571,The Regional Municipality of Halton,Burlington Skyway Wastewater Treatment Plant,Burlington,ON,43.3088,-79.8019,operational,3524,Halton,36346.5485,35841.378000000004,30941.912,35762.088,37230.636,37078.714,40440.7,thousand m3
13726,Ontario Power Generation Inc.,Darlington Nuclear,Bowmanville,ON,43.8696,-78.7245,decommissioned,3518,Durham,92.6169,,,,,,,thousand m3
14028,Corporation of the City of Guelph,City of Guelph Wastewater Treatment Plant,Guelph,ON,43.522,-80.264,operational,3523,Wellington,18031.737,19715.291,18539.329,14937.613000000001,21098.06,20000.901,20684.802,thousand m3
14215,City of Ottawa,Robert O. Pickard Environmental Centre,Gloucester,ON,45.4641,-75.5929,operational,3506,Ottawa,140180.1536,143603.0564,129239.4072,144176.0,171551.0,151524.0,159012.0,thousand m3
14286,Corporation of the City of London,Greenway Pollution Control Centre,London,ON,42.976,-81.2822,operational,3539,Middlesex,47407.072,44800.494,40390.148,43016.832,44084.445,42357.119,43297.317,thousand m3
14287,Corporation of the City of London,Oxford Pollution Control Plant,London,ON,42.9684,-81.3436,operational,3539,Middlesex,3610.4210000000003,3490.188,3267.965,3441.985,3730.452,3930.48,4015.611,thousand m3
14288,Corporation of the City of London,Pottersburg Pollution Control Plant,London,ON,42.973,-81.1803,operational,3539,Middlesex,9854.528,9455.987000000001,8526.398,9341.293,9284.23,9525.598,9684.874,thousand m3
14290,Corporation of the City of London,Vauxhall Pollution Control Plant,London,ON,42.9729,-81.2058,operational,3539,Middlesex,5756.164,5456.852,4904.72,5012.454,5454.137000000001,5044.326,5044.695,thousand m3
14291,Corporation of the City of London,Adelaide Pollution Control Plant,London,ON,43.015,-81.2486,operational,3539,Middlesex,9451.68,9044.669,8525.042000000001,10048.57,9812.069,9763.19,10518.457,thousand m3
14298,The Corporation of the City of Brantford,City of Brantford Water Pollution Control Plant,Brantford,ON,43.1268,-80.2294,operational,3529,Brant,12561.630000000001,12847.5,10597.3,9381.732,13270.978000000001,12696.295,12445.9003,thousand m3
14351,Regional Municipality of Durham,Harmony Creek WPCP,Oshawa,ON,43.8786,-78.8228,operational,3518,Durham,11196.722,9913.709,7715.354,5280.771,4401.803,3994.425,4234.622,thousand m3
14352,Regional Municipality of Durham,Corbett Creek WPCP,Whitby,ON,43.8546,-78.8925,operational,3518,Durham,17465.136,18894.861,18117.869,17296.402000000002,18738.299,17869.657,17598.260000000002,thousand m3
14353,Regional Municipality of Durham,Courtice WPCP,Courtice,ON,43.8598,-78.759,operational,3518,Durham,16031.953,17250.373,17149.587,13740.965,16421.247,16426.023,18646.162,thousand m3
14354,Regional Municipality of Durham,Pringle Creek WPCP #1,Whitby,ON,43.8647,-78.9289,decommissioned,3518,Durham,531.555,0.0,,,,,,thousand m3
14355,Regional Municipality of Durham,Port Darlington WPCP,Bowmanville,ON,43.8931,-78.664,operational,3518,Durham,4499.31,4691.77,4641.5740000000005,4033.517,4763.671,4597.514,4773.202,thousand m3
15883,City of Hamilton,Woodward Avenue Wastewater Treatment Plant,Hamilton,ON,43.2518,-79.7714,operational,3525,Hamilton,114771.29,111754.04000000001,105233.5,106345.943,126250.897,117338.875,142314.679,thousand m3
15912,City of Hamilton,King Street Wastewater Treatment Plant,Dundas,ON,43.2676,-79.9426,operational,3525,Hamilton,5390.522,4806.955,3976.08,5051.607,4883.039,4637.446,4765.789,thousand m3
17231,City of Toronto,North Toronto Treatment Plant,Toronto,ON,43.6998,-79.3571,operational,3520,Toronto,6561.6,8436.905,7280.8559000000005,6428.367,5730.610000000001,6871.74,7850.570000000001,thousand m3
17251,City of Toronto,Humber Treatment Plant,Toronto,ON,43.6336,-79.4768,operational,3520,Toronto,113709.15000000001,101415.59,99192.8,94167.77,120459.81,104417.06,114550.17300000001,thousand m3
18076,County of Oxford,Tavistock Lagoons,Tavistock,ON,43.3113,-80.8308,operational,3532,Oxford,860.705,760.902,625.825,528.949,690.72,1128.212,516.806,thousand m3
18945,Regional Municipality of Waterloo,New Hamburg Wastewater Treatment Lagoons,New Hamburg,ON,43.3651,-80.6865,operational,3530,Waterloo,1442.8742,1335.9607,1125.637,1144.787,1342.143,1380.251,1286.1100000000001,thousand m3
19048,The Corporation of the Municipality of West Perth,Mitchell Wastewater Treatment Plant,Mitchell,ON,43.4546,-81.1956,operational,3531,Perth,1685.115,717.3425,975.575,734.8435000000001,1574.406,1689.866,1653.3332,thousand m3
19140,City of Toronto,Ashbridges Bay Treatment Plant,Toronto,ON,43.6574,-79.3167,operational,3520,Toronto,230456.6,232931.929,213551.4882,201228.89,240816.927,205749.892,237723.434,thousand m3
20218,County of Oxford,Oxford County Ingersoll WWTP,Ingersoll,ON,43.036,-80.8934,operational,3532,Oxford,2839.256,2603.865,2365.576,2717.648,2659.744,2708.524,2826.933,thousand m3
20971,Township of Selwyn,Lakefield Waste Water Treatment Plant,Lakefield,ON,44.4158,-78.2593,operational,3515,Peterborough,547.4350000000001,581.085,530.635,535.943,459.887,330.60200000000003,337.253,thousand m3
22298,Corp. of the City of Timmins,Mattagami Water Pollution Control Plan,Timmins,ON,48.4931,-81.3594,operational,3556,Cochrane,9709.849,10066.116,8144.376,7338.379000000001,7387.669,9038.5021,9629.7201,thousand m3
22327,The Corporation of the City of Orillia,Wastewater Treatment Centre,Orillia,ON,44.5907,-79.4141,operational,3543,Simcoe,5344.822,5584.6596,4862.3961,5129.7712,5756.2461,5563.1282,5953.8046,thousand m3
22430,The Corporation of the City of Quinte West,Trenton Wastewater Treatment Plant,Trenton,ON,44.0992,-77.5602,operational,3512,Hastings,4444.4619999999995,4821.3782,4090.808,3907.558,5224.515,4566.031,5359.1071,thousand m3
23246,City of Dryden,WasteWater Plant,Dryden,ON,49.7955,-92.851,operational,3560,Kenora,1246.3020000000001,2502.9179999999997,2157.5029999999997,1559.837,1410.095,1286.229,1552.525,thousand m3
23247,The Corporation of the Town of Cochrane,Cochrane WWTP,Cochrane,ON,49.0716,-81.0255,operational,3556,Cochrane,896.427,938.485,796.542,733.106,697.325,619.3773,501.141,thousand m3
23248,The Corporation of the Township of North Huron,Blyth STP,Blyth,ON,43.7424,-81.4309,operational,3540,Huron,174.352,169.839,139.476,143.585,137.0115,150.618,148.461,thousand m3
23249,The Corporation of the Township of North Huron,Wingham STP,Wingham,ON,43.8772,-81.3289,operational,3540,Huron,881.818,874.898,379.457,571.886,870.148,819.731,786.3140000000001,thousand m3
23255,Correctional Service Canada,ON REGION - Joyceville Pittsburgh Institution,Joyceville,ON,44.3616,-76.3523,operational,3510,Frontenac,215.14090000000002,221.5198,179.8042,238.6141,269.7392,250.4977,254.122,thousand m3
23256,Correctional Service Canada,ON REGION - Warkworth Institution Wastewater Treatment System,Warkworth,ON,44.2085,-77.8014,operational,3514,Northumberland,235.41899999999998,151.9678,156.21730000000002,133.98,135.2279,121.8683,122.26150000000001,thousand m3
23276,Regional Municipality of Peel,G.E. Booth Wastewater Treatment Plant,Mississauga,ON,43.5788,-79.5435,operational,3521,Peel,172002.708,166861.989,113324.697,119324.72200000001,162508.104,172844.514,171214.2869,thousand m3
23277,Regional Municipality of Peel,Inglewood Wastewater Treatment Facility,Inglewood,ON,43.7973,-79.9347,operational,3521,Peel,38.807,38.4489,32.905,31.793,37.568400000000004,36.3423,34.82,thousand m3
23278,Regional Municipality of Peel,Clarkson Wastewater Treatment Plant,Mississauga,ON,43.4958,-79.6204,operational,3521,Peel,56663.635,60429.101,50296.407,54076.338,68496.662,69784.6661,83183.2493,thousand m3
23299,The Corporation of The Township of Nipigon,Nipigon WWTP,Nipigon,ON,49.0052,-88.2596,operational,3558,Thunder Bay,263.1015,375.5642,346.5131,288.2267,253.25060000000002,272.7139,330.201,thousand m3
23308,Haldimand County,Caledonia WWTP,Caledonia,ON,43.0681,-79.9457,operational,3528,Haldimand-Norfolk,1230.257,1193.858,1047.905,1238.3490000000002,1268.7640000000001,1307.6390000000001,1407.104,thousand m3
23309,Haldimand County,Cayuga WWTP,Cayuga,ON,43.0679,-79.9456,operational,3528,Haldimand-Norfolk,266.8994,260.808,236.241,225.003,284.987,290.978,312.432,thousand m3
23310,Haldimand County,Dunnville WWTP,Dunnville,ON,42.9007,-79.607,operational,3528,Haldimand-Norfolk,2914.112,1525.728,1406.333,1288.421,1622.856,1642.343,1848.192,thousand m3
23311,Haldimand County,Hagersville WWTP,Hagersville,ON,42.9474,-80.0654,operational,3528,Haldimand-Norfolk,1003.273,1046.306,946.499,767.315,992.7760000000001,944.735,1191.2060000000001,thousand m3
23313,Haldimand County,Lake Erie Industrial Park Sewage Lagoons,Nanticoke,ON,42.8246,-80.1105,operational,3528,Haldimand-Norfolk,371.69800000000004,407.4611,329.887,269.14,346.415,231.792,161.328,thousand m3
23314,Haldimand County,Townsend Sewage Lagoons,Townsend,ON,42.8841,-80.1529,operational,3528,Haldimand-Norfolk,212.315,161.1225,66.288,100.476,247.025,127.851,310.704,thousand m3
23315,Haldimand County,Jarvis Sewage Lagoons,Jarvis,ON,42.8797,-80.1021,operational,3528,Haldimand-Norfolk,301.706,380.61240000000004,288.175,288.176,379.327,341.40000000000003,411.236,thousand m3
23340,Township of Havelock-Belmont-Methuen,Havelock Wastewater Treatment Plant,Havelock,ON,44.4222,-77.8776,operational,3515,Peterborough,224.4225,257.9615,237.2294,253.25400000000002,333.227,440.01800000000003,294.872,thousand m3
23341,Municipality of Centre Hastings,Madoc Wastewater Treatment Lagoon,Centre Hastings,ON,44.4897,-77.4709,operational,3512,Hastings,247.63500000000002,265.4,205.47400000000002,224.375,348.57800000000003,357.103,238.192,thousand m3
23342,Township of Stirling-Rawdon,Stirling Wastewater Treatment Lagoon,Quinte West,ON,44.276,-77.5456,operational,3512,Hastings,328.973,259.32,274.195,286.661,388.954,316.564,327.043,thousand m3
23343,Municipality of Tweed,Tweed Wastewater Treatment Lagoon,Tweed,ON,44.4817,-77.2983,operational,3512,Hastings,364.782,422.861,333.139,296.808,427.918,318.016,318.16,thousand m3
23344,The Corporation of the Municipality of Trent Hills,Campbellford Wastewater Treatment Facility,Campbellford,ON,44.2875,-77.7997,operational,3514,Northumberland,1445.524,1425.0068,1154.5495,1350.5610000000001,1716.211,1577.67,1566.1109999999999,thousand m3
23345,The Corporation of the Municipality of Trent Hills,Hastings Wastewater Treatment Facility,Hastings,ON,44.3132,-77.9487,operational,3514,Northumberland,242.67700000000002,251.937,205.9521,241.8847,308.00100000000003,288.39300000000003,308.25300000000004,thousand m3
23346,The Corporation of the Township of Asphodel-Norwood,Norwood Wastewater Treatment Facility,Norwood,ON,44.3768,-77.9802,operational,3515,Peterborough,184.433,192.1259,154.20600000000002,158.326,209.71370000000002,207.5575,207.5616,thousand m3
23353,City of Toronto,Highland Creek Treatment Plant,Toronto,ON,43.7664,-79.1489,operational,3520,Toronto,61804.04,62247.9,60211.03,59169.3,62362.76,62670.96,63886.04,thousand m3
23354,City of Windsor,Little River Pollution Control Plant 2,Windsor,ON,42.3287,-82.9273,operational,3537,Essex,8413.29,8109.368,8306.392,8600.812,9048.524,9172.284,8496.727,thousand m3
23355,Township of Essa,Angus Wastewater Treatment Plant,Angus,ON,44.3302,-79.8723,operational,3543,Simcoe,901.5550000000001,936.0509999999999,813.328,912.1722000000001,1024.88,1026.376,1082.573,thousand m3
23356,Town of Wasaga Beach,Wasaga Beach Wastewater Treatment Plant,Wasaga Beach,ON,44.4829,-80.043,operational,3543,Simcoe,1973.736,1998.118,1910.888,2005.1850000000002,2319.786,2224.617,2251.784,thousand m3
23357,Township of Severn,Coldwater Wastewater Treatment Plant,Coldwater,ON,44.7225,-79.6438,operational,3543,Simcoe,282.5184,350.687,180.185,182.299,213.352,220.57,213.06799999999998,thousand m3
23358,Township of Springwater,Elmvale Wastewater Treatment Plant,Elmvale,ON,44.6038,-79.8691,operational,3543,Simcoe,407.9105,419.661,337.66200000000003,355.5919,338.9919,316.9693,339.8166,thousand m3
23359,Ontario Infrastructure and Lands Corporation,Penetanguishene Mental Health Centre Wastewater Treatment Facility,Penetanguishene,ON,44.8059,-79.9301,decommissioned,3543,Simcoe,123.1983,104.8794,82.7465,77.004,91.235,9.027000000000001,,thousand m3
23362,Town of Bradford West Gwillimbury,BWG Wastewater Treatment Plant,Bradford,ON,44.123,-79.5552,operational,3543,Simcoe,3087.887,3169.2650000000003,3042.261,3674.213,3646.347,3687.7490000000003,3833.778,thousand m3
23384,Corporation of the Town of Lakeshore,Dennis St. Pierre Water Pollution Control Plant (formerly - Belle River - Maidstone water Pollution Control Plant),Belle River,ON,42.2904,-82.7337,operational,3537,Essex,3641.715,4176.719,4433.667,4841.862,4954.809,5238.291,4983.1900000000005,thousand m3
23391,The Corporation of the Town of Bruce Mines,Bruce Mines Lagoon & Collection System,Bruce Mines,ON,46.3056,-83.7683,operational,3557,Algoma,198.484,188.403,108.864,134.785,210.613,170.915,190.24,thousand m3
23394,Village of Burk's Falls,Burk's Falls Wastewater Treatment Lagoon,Burk's Falls,ON,45.6297,-79.3983,operational,3549,Parry Sound,120.19800000000001,120.19800000000001,106.202,99.712,108.825,109.214,114.56,thousand m3
23395,Municipality of Callander,Callander Wastewater Treatment Lagoon,Callander,ON,46.2373,-79.3869,operational,3548,Nipissing,455.63800000000003,454.118,303.494,476.48900000000003,752.889,300.324,457.395,thousand m3
23396,Corporation of the Town of Espanola,Espanola Wastewater Treatment Plant,Espanola,ON,46.2649,-81.7845,operational,3552,Sudbury,1127.175,1119.545,1173.5929999999998,1171.385,1081.008,1155.666,1125.022,thousand m3
23397,The Corporation of the Town of Gore Bay,Gore Bay Wastewater Treatment Lagoon & Collection System,Gore Bay,ON,45.9106,-82.4787,operational,3551,Manitoulin,146.704,196.32,88.7522,127.4204,163.77,112.79,121.51,thousand m3
23398,The Corporation of the Municipality of Killarney,Killarney Wastewater Treatment Lagoon,Killarney,ON,45.9684,-81.5027,operational,3552,Sudbury,53.06,71.161,59.912,77.43360000000001,127.608,101.405,108.164,thousand m3
23399,The Corporation of the Town of Northeastern Manitoulin and the Islands,Little Current Wastewater Treatment Lagoon,Little Current,ON,45.9635,-81.932,operational,3551,Manitoulin,451.0,477.75,519.5,328.5,355.54,291.0,346.06,thousand m3
23400,Municipality of Central Manitoulin,Mindemoya Wastewater Treatment Plant,Mindemoya,ON,45.7222,-82.1597,operational,3551,Manitoulin,62.244,72.1928,67.387,51.85,51.557,61.56,77.53999999999999,thousand m3
23401,Municipality of French River,Noelville Wastewater Treatment Lagoon,Noelville,ON,46.1386,-80.4158,operational,3552,Sudbury,110.724,118.739,99.87,94.1166,87.568,97.797,85.0673,thousand m3
23402,Municipality of Powassan,Powassan Wastewater Treatment Lagoon,Powassan,ON,46.0851,-79.3737,operational,3549,Parry Sound,210.921,254.034,297.77500000000003,342.872,224.701,216.966,215.488,thousand m3
23403,Corporation of the Town of Spanish,Spanish Wastewater Treatment Lagoon,Spanish,ON,46.1869,-82.3605,operational,3557,Algoma,34.385,94.996,22.68,39.762,117.31139999999999,18.338,72.0,thousand m3
23404,Village of Sundridge,Sundridge Wastewater Treatment Lagoon,Sundridge,ON,45.7162,-79.417,operational,3549,Parry Sound,139.655,263.15,291.145,234.692,341.938,261.903,312.151,thousand m3
23405,Municipality of West Nipissiing,Verner Wastewater Treatment Lagoon,Verner,ON,46.4004,-80.1148,operational,3548,Nipissing,180.811,190.002,385.313,250.735,203.434,203.434,203.434,thousand m3
23406,Municipality of Markstay-Warren,Warren Wastewater Treatment Lagoon,Warren,ON,46.4405,-80.291,operational,3548,Nipissing,30.1585,75.997,40.248,52.7233,76.261,61.464,39.610400000000006,thousand m3
23407,Township of Sables-Spanish Rivers,Webbwood Wastewater Treatment Lagoon,Webbwood,ON,46.2652,-81.9035,operational,3552,Sudbury,51.497,0.0,63.218,0.0,36.734,20.848,49.532000000000004,thousand m3
23408,Township of Assiginack,Assiginack Wastewater Treatment Lagoon & Collection System,Manitowaning,ON,45.7524,-81.8168,operational,3551,Manitoulin,91.534,82.656,117.203,54.443,84.901,66.185,90.809,thousand m3
23414,Township of Wellington North,"Arthur Wastewater Treatment Plant, Lagoon & Collection System",Arthur,ON,43.8312,-80.5481,operational,3523,Wellington,714.367,654.617,564.271,501.266,577.4606,529.2875,400.645,thousand m3
23415,Township of Mapleton,Drayton Wastewater Treatment System & Lagoon,Drayton,ON,43.7469,-80.6908,operational,3523,Wellington,237.0478,262.355,352.03270000000003,277.4486,322.86920000000003,289.6519,191.60920000000002,thousand m3
23416,Township of Meaford,Meaford Wastewater Treatment Plant,Meaford,ON,44.6018,-80.5734,operational,3542,Grey,1012.577,971.4069999999999,805.759,1016.222,1146.0130000000001,1025.938,1073.343,thousand m3
23417,Town of Saugeen Shores,Port Elgin Wastewater System,Port Elgin,ON,44.4382,-81.3714,operational,3541,Bruce,1466.972,1421.175,1007.104,937.8352,1124.1266,1442.346,1522.936,thousand m3
23418,Town of Shelburne,Shelburne Wastewater Treatment Plant,Shelburne,ON,44.0846,-80.192,operational,3522,Dufferin,786.0954,833.5296000000001,764.8166,823.5693,930.3435,905.2762,894.1424000000001,thousand m3
23419,Town of Saugeen Shores,Southampton Wastewater Treatment Plant & Collection System,Southampton,ON,44.5016,-81.3541,operational,3541,Bruce,686.101,665.436,531.015,644.9250000000001,802.562,747.578,771.626,thousand m3
23420,Township of Wellington North,Mount Forest Wastewater Treatment Plant,Mount Forest,ON,43.9675,-80.7447,operational,3523,Wellington,881.562,841.547,699.312,767.5219,922.8409,819.6904,751.6654000000001,thousand m3
23421,Town of South Bruce Peninsula,Wiarton Wastewater Treatment Lagoon,Wiarton,ON,44.7336,-81.1329,operational,3542,Grey,638.4590000000001,579.646,548.385,506.407,673.838,562.606,601.748,thousand m3
23422,Township of East Luther-Grand Valley,Grand Valley Wastewater Treatment Plant & Collection System,Grand Valley,ON,43.8878,-80.3086,operational,3522,Dufferin,297.52200000000005,281.56100000000004,256.872,226.626,289.5153,261.9071,251.68460000000002,thousand m3
23424,Corporation of the City of London,Southland Pollution Control Plant,London,ON,42.9086,-81.2861,decommissioned,3539,Middlesex,104.408,102.90100000000001,94.95400000000001,85.26,52.309,13.458,,thousand m3
23425,Corporation of the Town of Thessalon,Thessalon Wastewater Treatment Lagoon,Thessalon,ON,46.2605,-83.5361,operational,3557,Algoma,178.984,476.729,378.858,397.945,487.444,407.908,487.95300000000003,thousand m3
23426,The Corporation of the Town of Parry Sound,Parry Sound WWTP,Parry Sound,ON,45.3351,-80.0238,operational,3549,Parry Sound,1704.65,1823.008,1421.685,1172.8897,1787.6890000000003,1548.0990000000002,1708.905,thousand m3
23427,Township of North Dundas,Chesterville Wastewater Treatment Lagoon,Chesterville,ON,45.1013,-75.2165,operational,3501,"Stormont, Dundas and Glengarry",339.408,360.278,179.735,293.208,474.236,238.856,341.201,thousand m3
23428,Township of North Dundas,Winchester Wastewater Treatment Lagoon,Winchester,ON,45.0607,-75.3012,operational,3501,"Stormont, Dundas and Glengarry",585.197,509.244,365.968,520.275,755.888,420.20300000000003,558.051,thousand m3
23429,Township of North Stormont,Crysler Wastewater Treatment Lagoon,Crysler,ON,45.2321,-75.1433,operational,3501,"Stormont, Dundas and Glengarry",177.888,228.26,180.316,203.083,284.887,285.033,255.892,thousand m3
23430,Township of North Stormont,Moose Creek Wastewater Treatment Lagoon,Moose Creek,ON,45.2623,-74.9866,operational,3501,"Stormont, Dundas and Glengarry",68.70700000000001,117.94500000000001,81.483,90.414,90.75,91.32000000000001,117.485,thousand m3
23431,Township of Leeds and the Thousand Islands,Leeds and Lansdowne Wastewater Treatment Lagoon,Lansdowne,ON,44.409,-76.0109,operational,3507,Leeds and Grenville,78.72200000000001,74.07900000000001,45.083,25.133,80.565,40.97,70.767,thousand m3
23432,Separated Town of Prescott,Prescott Wastewater Treatment Plant,Prescott,ON,44.7287,-75.4805,operational,3507,Leeds and Grenville,1241.7559999999999,1216.3188,1169.434,1233.8600000000001,1491.35,1295.4940000000001,1216.3490000000002,thousand m3
23444,Township of Chapleau,Chapleau Wastewater Treatment Lagoon,Chapleau,ON,47.8475,-83.3863,operational,3552,Sudbury,604.8867,589.7476,512.456,505.601,600.179,808.565,1009.513,thousand m3
23445,Town of Englehart,Englehart Wastewater Treatment Lagoon,Englehart,ON,47.8305,-79.8782,operational,3554,Timiskaming,541.5811,578.424,517.36,518.2816,497.519,503.4841,517.9851,thousand m3
23446,Township of Fauquier-Strickland,Fauquier Sewage Treatment Lagoon,Fauquier,ON,49.3459,-82.1404,operational,3556,Cochrane,74.2973,131.615,135.927,174.75,182.81300000000002,78.70700000000001,141.542,thousand m3
23447,Foleyet Local Services Board,Foleyet Wastewater Treatment Lagoon,Foleyet,ON,48.2702,-82.4439,operational,3552,Sudbury,112.1729,55.433,85.613,85.613,85.612,85.936,88.273,thousand m3
23448,City of Temiskaming Shores,North Cobalt Wastewater Lagoon,Haileybury,ON,47.4261,-79.6263,operational,3554,Timiskaming,163.7856,169.95929999999998,162.97160000000002,166.091,189.8145,157.97,205.462,thousand m3
23449,City of Temiskaming Shores,Haileybury Mechanical Sewage Treatment Plant,Haileybury,ON,47.4448,-79.6306,operational,3554,Timiskaming,516.6134,788.8366000000001,535.1659999999999,649.5044,665.6915,601.6819,802.3072,thousand m3
23450,Town of Hearst,Hearst Wastewater Treatment Lagoon,Hearst,ON,49.6656,-83.658,operational,3556,Cochrane,949.0803000000001,1029.796,814.044,714.0500000000001,819.23,920.465,529.043,thousand m3
23455,Kiewit-Alarie,Smoky Falls Generating Station Wastewater,Harmon Unorganized Township,ON,50.054,-82.1583,decommissioned,3556,Cochrane,50.1935,34.1586,9.5075,,,,,thousand m3
23456,Township of Black River-Matheson,Matheson Wastewater Treatment Plant & Collection System,Matheson,ON,48.5416,-80.4702,operational,3556,Cochrane,238.62,253.91000000000003,264.40200000000004,230.82,219.097,176.67800000000003,189.853,thousand m3
23457,Township of Black River-Matheson,Ramore (Playfair) Wastewater Treatment Lagoon,Ramore,ON,48.4342,-80.31,operational,3556,Cochrane,74.66239999999999,27.388,42.667,93.19500000000001,42.012,35.39,45.675000000000004,thousand m3
23458,Township of Black River-Matheson,Holtyre Wastewater Lagoon,Holtyre,ON,48.4705,-80.279,operational,3556,Cochrane,79.4537,102.421,53.1135,28.173000000000002,59.679,54.800000000000004,64.17,thousand m3
23459,Ontario Infrastructure and Lands Corporation,Monteith Correctional Center Wastewater,Monteith,ON,48.6397,-80.6752,operational,3556,Cochrane,33.027,28.028,22.702,23.708,38.181,33.414,41.480000000000004,thousand m3
23460,Town of Mattice-Val Cote,Mattice Wastewater Treatment Lagoon,Mattice,ON,49.6172,-83.2503,operational,3556,Cochrane,114.4074,156.086,120.309,154.731,212.877,108.83500000000001,142.903,thousand m3
23461,Township of McGarry,McGarry Lagoons,McGarry Township,ON,48.1281,-79.5935,operational,3554,Timiskaming,704.461,668.085,566.7,504.314,608.645,537.999,434.79,thousand m3
23462,City of Temiskaming Shores,New Liskeard Lagoon,New Liskeard,ON,47.5248,-79.6959,operational,3554,Timiskaming,1503.6879,1715.3366999999998,1495.222,1335.9897,1389.1295,1643.1723,1784.8482,thousand m3
23463,Township of Opasatika,Opasatika Wastewater Lagoon,Opasatika,ON,49.5346,-82.8519,operational,3556,Cochrane,111.0331,73.427,69.363,62.145,77.012,42.187,64.687,thousand m3
23465,Town of Smooth Rock Falls,Smooth Rock Falls Sewage Treatment Plant,Smooth Rock Falls,ON,49.2926,-81.6322,operational,3556,Cochrane,551.35,657.3138,473.9459,520.871,559.3389999999999,417.9698,425.357,thousand m3
23466,Municipality of Temagami,Temagami North Wastewater Treatment Lagoon,Temagami,ON,47.0625,-79.7793,operational,3548,Nipissing,105.0892,120.52350000000001,117.5938,107.041,109.12960000000001,106.89500000000001,137.395,thousand m3
23467,Municipality of Temagami,Temagami South Wastewater Treatment Lagoon,Temagami,ON,47.0626,-79.7791,operational,3548,Nipissing,75.24380000000001,70.805,74.4159,49.348,45.800000000000004,0.033,68.515,thousand m3
23468,Township of Val Rita-Harty,Val Rita Sewage Lagoon,Val Rita,ON,49.4427,-82.5266,operational,3556,Cochrane,307.5267,237.809,155.171,126.095,137.723,89.7476,134.022,thousand m3
23469,The Corporation of the Municipality of Greenstone,Geraldton Wastewater Treatment Plant & Collection System,Geraldton,ON,49.7132,-86.9449,operational,3558,Thunder Bay,603.364,715.8900000000001,727.573,844.96,841.398,600.2323,833.969,thousand m3
23470,The Corporation of the Municipality of Greenstone,Longlac Wastewater Treatment Plant and Collection System,Longlac,ON,49.7737,-86.5264,operational,3558,Thunder Bay,580.84,582.71,559.51,504.919,663.642,547.331,586.202,thousand m3
23471,The Corporation of the Municipality of Greenstone,Nakina Wastewater Treatment Plant,Nakina,ON,50.1866,-86.7211,operational,3558,Thunder Bay,168.636,182.596,159.368,124.724,183.554,165.027,168.365,thousand m3
23472,The Corporation of the Township of Hornepayne,Hornepayne Wastewater Treatment Plant and Collection System,Hornepayne,ON,49.2156,-84.77,operational,3557,Algoma,338.03200000000004,343.124,314.993,311.69500000000005,234.601,255.083,248.68,thousand m3
23473,The Corporation of the Town of Marathon,Marathon Wastewater Treatment Plant,Marathon,ON,48.7063,-86.3853,operational,3558,Thunder Bay,382.52500000000003,395.23199999999997,381.34000000000003,369.975,371.576,351.099,371.992,thousand m3
23474,The Corporation of the Town of Fort Frances,Fort Frances Wastewater Treatment Plant,Fort Frances,ON,48.6037,-93.4255,operational,3559,Rainy River,2312.3,2790.94,2170.783,2463.679,2363.1710000000003,2187.105,2869.478,thousand m3
23475,The Corporation of the Township of Ear Falls,Ear Falls Wastewater Treatment Plant & Collection System,Ear Falls,ON,50.6332,-93.2515,operational,3560,Kenora,252.48200000000003,282.74,306.373,300.374,298.82,322.298,326.763,thousand m3
23476,Moose Cree First Nation,Moose Factory Lagoon,Moose Factory,ON,51.2664,-80.6026,operational,3556,Cochrane,1434.6091999999999,1373.0616000000002,1282.4712,594.0026,835.488,805.758,1239.52,thousand m3
23482,The Corporation of the Town of Essex,Colchester South Wastewater Treatment Lagoon,Colchester,ON,42.0003,-82.9638,operational,3537,Essex,276.74,300.657,347.6538,328.096,275.874,400.766,422.886,thousand m3
23483,The Corporation of the Town of Essex,Essex Wastewater Treatment Lagoons - North East,Essex,ON,42.1818,-82.7949,operational,3537,Essex,452.56,468.172,287.178,451.926,373.2,474.437,480.053,thousand m3
23484,The Corporation of the Town of Essex,Harrow Wastewater Lagoons,Harrow,ON,42.043,-82.9351,operational,3537,Essex,369.50100000000003,355.899,521.862,401.277,349.129,482.142,399.981,thousand m3
23485,Town of Amherstburg,Amherstburg Wastewater Treatment Plant,Amherstburg,ON,42.0938,-83.1085,operational,3537,Essex,2357.6072,1742.045,2153.3079000000002,1704.4598,2139.904,2415.4162,3013.8759,thousand m3
23486,Town of Amherstburg,Edgewater Beach Wastewater Lagoon,Amherstburg,ON,42.1478,-83.1054,operational,3537,Essex,485.562,501.6007,430.71090000000004,525.777,613.1439,595.8899,342.62809999999996,thousand m3
23487,Town of Amherstburg,McLeod Sewage Treatment Plant,Amherstburg,ON,42.0484,-83.0919,operational,3537,Essex,158.985,172.705,178.821,156.237,174.9089,196.3823,231.59900000000002,thousand m3
23488,Town of Amherstburg,McGregor Wastewater Lagoons,Amherstburg,ON,42.1337,-82.9791,operational,3537,Essex,301.608,311.13820000000004,259.1024,198.9938,295.95,344.868,312.039,thousand m3
23489,Township of Warwick,Watford Wastewater Treatment Lagoons,Watford,ON,42.9414,-81.8934,operational,3538,Lambton,305.0628,167.755,188.1924,277.5388,233.25979999999998,328.2668,253.40279999999998,thousand m3
23490,Municipality of Brooke-Alvinston,Alvinston Wastewater Treatment Plant,Alvinston,ON,42.8116,-81.8555,operational,3538,Lambton,133.24020000000002,133.193,88.5206,69.9088,78.2852,76.4365,86.8008,thousand m3
23491,Town of Plympton-Wyoming,Wyoming Wastewater Treatment Plant,Wyoming,ON,42.9419,-82.1298,operational,3538,Lambton,184.8307,164.76500000000001,168.22310000000002,194.144,194.622,202.55,204.372,thousand m3
23492,The Corporation of the Town of Essex,Essex Pollution Control Plant,Essex,ON,42.1657,-82.8391,operational,3537,Essex,747.285,736.766,721.3936,675.057,666.1394,729.517,714.816,thousand m3
23493,Town of Kingsville,Lakeshore West Pollution Control Plant,Kingsville,ON,42.0184,-82.7697,operational,3537,Essex,1266.48,1358.487,1556.804,1599.8899999999999,1694.156,1722.647,2002.047,thousand m3
23494,Town of Kingsville,Kingsville Wastewater Lagoons,Kingsville,ON,42.0455,-82.7604,operational,3537,Essex,110.672,147.118,167.7368,157.748,202.731,225.26970000000003,227.14000000000001,thousand m3
23495,Town of Kingsville,Cottam Sewage Works,Cottam,ON,42.1305,-82.7316,operational,3537,Essex,275.415,257.166,262.2591,233.085,209.109,281.152,263.38800000000003,thousand m3
23496,Municipality of West Elgin,West Lorne Wastewater Treatment Plant,West Lorne,ON,42.5857,-81.5959,operational,3534,Elgin,206.84300000000002,209.8852,178.7134,487.684,184.9015,230.9793,138.3827,thousand m3
23497,Municipality of West Elgin,Rodney Wastewater Treatment Plant,Rodney,ON,42.5656,-81.6698,operational,3534,Elgin,153.04,153.4958,137.32590000000002,137.3497,127.06,146.9466,135.46099999999998,thousand m3
23498,Municipality of Southwest Middlesex,Glencoe Wastewater Lagoons,Glencoe,ON,42.7388,-81.6841,operational,3539,Middlesex,247.03900000000002,250.961,213.373,196.7996,185.0096,238.26010000000002,246.26610000000002,thousand m3
23499,Town of Aylmer,Aylmer Wastewater Lagoons,Aylmer,ON,42.7831,-81.0113,operational,3534,Elgin,1485.8092,1526.9476,1146.9677000000001,1226.1046000000001,1182.5511000000001,1533.6680999999999,1331.5876,thousand m3
23502,The Corporation of the Municipality of Huron East,Seaforth Sewage Treatment Plant,Seaforth,ON,43.5547,-81.421,operational,3540,Huron,896.337,780.3240000000001,539.07,606.985,719.542,638.769,617.094,thousand m3
23503,The Corporation of the Municipality of Huron East,Brussels Wastewater Treatment Plant,Brussels,ON,43.7508,-81.2486,operational,3540,Huron,232.227,205.019,194.249,214.151,228.405,211.50799999999998,207.983,thousand m3
23504,The Corporation of the Municipality of Huron East,Vanastra Water Pollution Control Plant,Vanastra,ON,43.5793,-81.529,operational,3540,Huron,301.80899999999997,246.36700000000002,195.115,227.27100000000002,269.529,234.224,239.967,thousand m3
23505,The Corporation of the Town of Kirkland Lake,Swastika Water Pollution Control Plant,Swastika,ON,48.1022,-80.1053,operational,3554,Timiskaming,216.062,216.313,215.276,201.3416,205.25369999999998,205.87920000000003,210.1658,thousand m3
23512,Town of Greater Napanee,Napanee Water Pollution Control Plant,Napanee,ON,44.2394,-76.9598,operational,3511,Lennox and Addington,2611.017,2770.996,2377.592,2423.26,2572.96,2245.831,2760.057,thousand m3
23518,The Corporation of the Town of Laurentian Hills,Chalk River WWTP,Chalk River,ON,46.0213,-77.447,operational,3547,Renfrew,153.144,159.546,133.012,155.431,219.977,166.667,178.316,thousand m3
23519,Regional Municipality of Niagara,Stevensville/Douglastown Lagoon,Stevensville,ON,42.9702,-79.0372,operational,3526,Niagara,468.58,445.65000000000003,435.543,481.90000000000003,596.932,609.668,630.908,thousand m3
23520,Regional Municipality of Niagara,Queenston Wastewater Treatment,Niagara-on-the-Lake,ON,43.163,-79.0496,operational,3526,Niagara,103.71600000000001,82.077,85.372,83.028,85.58800000000001,72.302,77.57000000000001,thousand m3
23525,The Corporation of the Township of Centre Wellington,Fergus WWTP,Fergus,ON,43.7017,-80.3795,operational,3523,Wellington,1733.6970000000001,1648.9840000000002,1364.97,1459.845,1701.892,1543.96,1606.837,thousand m3
23527,The Corporation of the Township of Centre Wellington,Elora WWTP,Elora,ON,43.6802,-80.4308,operational,3523,Wellington,735.434,684.888,614.021,626.268,701.155,650.2860000000001,693.513,thousand m3
23533,Regional Municipality of Niagara,Crystal Beach Wastewater Treatment Plant,Crystal Beach,ON,42.8617,-79.0574,operational,3526,Niagara,2141.168,2099.659,1827.708,1675.64,2158.828,2143.882,2290.597,thousand m3
23534,Regional Municipality of Niagara,Niagara-on-the-Lake Lagoon,Niagara-on-the-Lake,ON,43.2535,-79.1029,operational,3526,Niagara,1782.88,1550.425,1422.978,1444.594,1664.8159999999998,1710.5790000000002,1911.47,thousand m3
23550,City of Kenora,Kenora Area wastewater facility,Kenora,ON,49.7829,-94.4996,operational,3560,Kenora,2865.5110000000004,3061.483,2594.4660000000003,2715.722,2171.106,2398.048,2857.548,thousand m3
23558,County of Oxford,Tillsonburg WWTP,Tillsonburg,ON,42.8553,-80.7221,operational,3532,Oxford,2156.491,2099.743,1882.968,1873.058,2025.811,2156.123,2243.004,thousand m3
23559,County of Oxford,Thamesford WWTP,Thamesford,ON,43.048,-80.9953,operational,3532,Oxford,571.956,550.032,520.148,508.169,473.193,261.674,199.502,thousand m3
23560,County of Oxford,Drumbo SBR,Drumbo,ON,43.2398,-80.5586,operational,3532,Oxford,105.995,103.97,85.259,92.086,99.94800000000001,100.22500000000001,108.55799999999999,thousand m3
23561,County of Oxford,Plattsville Lagoons,Plattsville,ON,43.2978,-80.6,operational,3532,Oxford,221.95600000000002,188.441,134.145,173.739,200.56,169.139,172.214,thousand m3
23562,County of Oxford,Norwich Lagoons,Norwich,ON,42.9819,-80.5881,operational,3532,Oxford,191.149,204.485,149.1,157.712,383.281,402.487,410.574,thousand m3
23571,Sherkston Shores Inc.,Sherkston Shores WWTP,Sherkston,ON,42.8781,-79.1407,operational,3526,Niagara,79.385,79.309,82.139,76.265,64.209,38.088,75.511,thousand m3
23574,The Corporation of the Town of Minto,Palmerston WWTP,Palmerston,ON,43.8278,-80.855,operational,3531,Perth,591.779,525.991,421.492,444.986,537.176,438.339,353.6733,thousand m3
23575,The Corporation of the Town of Minto,Harriston Wastewater Treatment Facility,Harriston,ON,43.9114,-80.885,operational,3523,Wellington,627.02,641.5020000000001,412.2185,445.3799,472.3953,464.69100000000003,464.69100000000003,thousand m3
23576,The Corporation of the Town of Minto,Clifford Wastewater Treatment Facility,Clifford,ON,43.9758,-80.9807,operational,3523,Wellington,34.456,156.436,120.036,129.695,75.415,85.343,85.343,thousand m3
23578,The Corporation of the Town of Moosonee,Moosonee Lagoon System,Moosonee,ON,51.2493,-80.6773,operational,3556,Cochrane,604.062,569.582,442.758,403.5,446.169,365.635,260.622,thousand m3
23580,The Corporation of the Town of Deseronto,Deseronto Water Pollution Control Plant,Deseronto,ON,44.1929,-77.0477,operational,3512,Hastings,495.666,577.4970000000001,430.745,437.477,594.816,572.9010000000001,536.495,thousand m3
23581,Kasabonika Lake First Nation,Kasabonika Lake RBC Treatment System,Kasabonika Lake,ON,53.5305,-88.6049,operational,3560,Kenora,,,,0.0,0.0,0.0,,thousand m3
23582,corporation of the town of collingwood,Collingwood WWTP,Collingwood,ON,47.4037,-79.6819,operational,3554,Timiskaming,6505.42,5921.787,4938.54,6159.748,6856.88,6546.49,5913.694,thousand m3
23584,Municplaity of Dysart et al,Municpality Of Dysart WWTP,Village of Haliburton,ON,45.0452,-79.5257,operational,3544,Muskoka,320.60900000000004,323.775,295.757,313.64300000000003,372.894,313.33500000000004,336.833,thousand m3
23596,The Corporation of the Municipality of North Grenville,Kemptville Water Pollution Control Plant,Kemptville,ON,45.029,-75.6452,operational,3507,Leeds and Grenville,584.421,790.191,482.34630000000004,764.26,1164.301,882.0267,802.317,thousand m3
23597,Corporation of the Township of Perth East,Shakespeare WWTP,Shakespeare,ON,43.3675,-80.8423,operational,3531,Perth,54.2191,50.1678,51.129,54.5081,58.3436,58.8035,64.88499999999999,thousand m3
23602,Nipissing First Nation WasteWater Treatment Plant,Nipissing First Nation Waste Treatment Plant,Garden Village,ON,46.393,-79.632,operational,3548,Nipissing,40.483000000000004,0.44,0.447,0.455,0.49,0.474,0.44,thousand m3
23603,The Public Utilities Commission for the Municipality of Chatham-Kent,Blenheim Sewage Treatment Plant,Blenheim,ON,42.3211,-82.0267,operational,3536,Chatham-Kent,759.722,867.8430000000001,715.907,911.809,796.173,1151.4196000000002,979.1054,thousand m3
23604,The Public Utilities Commission for the Municipality of Chatham-Kent,Merlin Lagoon,Merlin,ON,42.2521,-82.2295,operational,3536,Chatham-Kent,29.679000000000002,68.263,60.914,48.062,69.16,94.98400000000001,61.028,thousand m3
23605,The Public Utilities Commission for the Municipality of Chatham-Kent,Ridgetown Wastewater Treatment Plant,Ridgetown,ON,42.446,-81.9042,operational,3536,Chatham-Kent,458.057,461.65,383.171,373.95000000000005,360.0884,484.3983,451.8879,thousand m3
23606,The Public Utilities Commission for the Municipality of Chatham-Kent,Chatham Water Pollution Control Plant,Chatham,ON,42.3901,-82.2154,operational,3536,Chatham-Kent,9292.21,5978.71,7404.92,7555.95,7585.32,9368.32,8089.21,thousand m3
23607,The Public Utilities Commission for the Municipality of Chatham-Kent,Tilbury Wastewater Treatment Plant,Tilbury,ON,42.2723,-82.4476,operational,3537,Essex,879.767,399.0579,908.102,828.875,762.6800000000001,946.8174000000001,792.2516,thousand m3
23608,The Public Utilities Commission for the Municipality of Chatham-Kent,Wheatley Water Pollution Control Plant,Wheatley,ON,42.0762,-82.4571,operational,3536,Chatham-Kent,688.185,499.11490000000003,701.885,689.3140000000001,766.991,771.245,854.502,thousand m3
23609,The Public Utilities Commission for the Municipality of Chatham-Kent,Wallaceburg Water Pollution Control Plant,Wallaceburg,ON,42.5805,-82.3895,operational,3536,Chatham-Kent,2162.69,1861.703,1968.641,2003.93,2237.05,2644.753,3282.46,thousand m3
23610,The Public Utilities Commission for the Municipality of Chatham-Kent,Mitchell's Bay Lagoon,Mitchell's Bay,ON,42.4816,-82.3969,operational,3536,Chatham-Kent,21.134,0.0,13.326,13.476,16.903,36.779,57.5777,thousand m3
23611,The Public Utilities Commission for the Municipality of Chatham-Kent,Thamesville Wastewater Treatment Plant,Thamesville,ON,42.546,-81.9681,decommissioned,3536,Chatham-Kent,67.553,72.1383,63.085800000000006,73.8618,68.3476,0.0,0.0,thousand m3
23612,The Public Utilities Commission for the Municipality of Chatham-Kent,Dresden Water Pollution Control Plant,Dresden,ON,42.5896,-82.1894,operational,3536,Chatham-Kent,640.625,659.514,516.1,545.694,561.531,605.886,522.2181,thousand m3
23617,Kingfisher Lake First Nation,Kingfisher Lake Lagoon,Kingfisher Lake,ON,53.0337,-89.8339,operational,3560,Kenora,,,,,5.352,,,thousand m3
23628,The Corporation of the Municipality of Red Lake,Balmertown Water Pollution Control Plant,Balmertown,ON,51.055,-93.7385,operational,3560,Kenora,226.222,220.812,243.105,219.277,185.997,176.336,219.152,thousand m3
23629,The Corporation of the Town of New Tecumseth,Regional WWTP,Alliston,ON,44.1475,-79.8165,operational,3543,Simcoe,1311.028,1335.159,1530.902,1385.575,1591.016,1569.459,1534.559,thousand m3
23630,The Corporation of the Town of New Tecumseth,Alliston WWTP,Alliston,ON,44.1601,-79.8457,operational,3543,Simcoe,1427.944,1454.576,1405.278,1472.7160000000001,1552.714,1585.564,1591.3990000000001,thousand m3
23631,The Corporation of the Town of New Tecumseth,Tottenham WWTP,Tottenham,ON,44.0235,-79.8175,operational,3543,Simcoe,669.8040000000001,654.0070000000001,623.629,668.181,879.258,893.688,870.232,thousand m3
23632,The Corporation of the Municipality of Red Lake,Red Lake Water Pollution Control Plant,Red Lake,ON,51.0156,-93.8178,operational,3560,Kenora,371.11400000000003,466.51,426.246,469.54150000000004,368.389,395.332,405.95300000000003,thousand m3
23633,The Corporation of the Municipality of Red Lake,Cochenour Sewage Lagoon,Cochenour,ON,51.07,-93.8034,operational,3560,Kenora,120.54,46.911,51.095,65.929,58.091,38.3555,74.8793,thousand m3
23634,The Corporation of the Township of Ignace,Ignace Water Pollution Control Plant,Ignace,ON,49.4146,-91.6531,operational,3560,Kenora,411.09000000000003,535.095,468.04600000000005,659.4856,540.888,282.209,393.69500000000005,thousand m3
23635,The Corporation of the Municipality of Sioux Lookout,Sioux Lookout Sewage Treatment Plant,Sioux Lookout,ON,50.0978,-91.9334,operational,3560,Kenora,784.3,706.52,744.51,731.76,702.56,666.47,753.26,thousand m3
23636,The Corporation of the Town of Atikokan,Atikokan Water Pollution Control Plant,Atikokan,ON,48.7555,-91.6328,operational,3559,Rainy River,1046.028,1238.746,1294.51,1140.242,1185.558,835.1210000000001,1227.997,thousand m3
23638,Wapekeka First Nation,Wapekeka Lagoon,Angling Lake,ON,53.8515,-89.527,operational,3560,Kenora,,0.073,0.146,0.146,0.146,0.146,,thousand m3
23639,Corporation of The Town of The Blue Mountains,Craigleith Wastewater Treatment Plant,Blue Mountains,ON,44.5288,-80.2924,operational,3543,Simcoe,862.715,909.5980000000001,855.076,887.2560000000001,965.5889999999999,952.817,1012.745,thousand m3
23640,Corporation of The Town of The Blue Mountains,Thornbury Wastewater Treatment Plant,Thornbury,ON,44.5554,-80.4427,operational,3542,Grey,1048.5259999999998,912.2460000000001,743.798,916.294,1087.764,1023.09,999.556,thousand m3
23642,Municipality of North Perth,North Perth Wastewater Treatment Plant,Listowel,ON,43.7228,-80.9875,operational,3531,Perth,2914.853,2426.732,1917.1200000000001,1815.8165,2785.44,2337.6440000000002,2347.2200000000003,thousand m3
23643,Municipality of Middlesex Centre,Komoka WWTF,Komoka,ON,42.936,-81.4207,operational,3539,Middlesex,195.34199999999998,204.541,182.454,163.923,167.268,197.6,305.652,thousand m3
23644,InnServices Utilities Inc.,Cookstown WWTP,Innisfil,ON,44.1806,-79.7073,operational,3543,Simcoe,138.838,201.80100000000002,145.308,164.631,188.026,196.809,202.159,thousand m3
23645,Municipality of Middlesex Centre,Kilworth WWTF,RR5 Komoka,ON,42.9522,-81.4015,operational,3539,Middlesex,246.18720000000002,244.347,220.71450000000002,222.6315,224.25990000000002,246.745,180.133,thousand m3
23646,Municipality of Middlesex Centre,Ilderton WWTF,Ilderton,ON,43.0769,-81.3668,operational,3539,Middlesex,272.623,254.81400000000002,234.051,258.451,256.66,314.365,345.3,thousand m3
23647,InnServices Utilities Inc.,Lakeshore WPCP,Innisfil,ON,44.2933,-79.5343,operational,3543,Simcoe,3042.2380000000003,3162.482,2834.184,3293.9,3890.675,3687.879,3422.439,thousand m3
23670,Mohawk Council of Akwesasne,Block 97 RBC,Akwesasne,ON,45.0023,-74.7626,operational,3501,"Stormont, Dundas and Glengarry",,,,,,,,thousand m3
23672,Corporation of the Municipality of Central Huron,Town of Clinton Sewage Treatment Plant,Clinton,ON,43.6054,-81.539,operational,3540,Huron,1110.26,953.5160000000001,740.206,926.106,1152.557,924.3620000000001,900.923,thousand m3
23677,Corporation Town of Smiths Falls,Smiths Falls Water Pollution Control Plant,Smiths Falls,ON,44.8922,-76.0,operational,3509,Lanark,4700.953,3348.6820000000002,3252.849,3461.937,3545.982,3956.349,3768.236,thousand m3
23678,The Corporation of the Municipality of West Grey,Durham WWTP,Durham,ON,44.1718,-80.8267,operational,3542,Grey,356.699,412.97200000000004,301.318,321.478,358.0528,256.199,255.9,thousand m3
23679,The Corporation of the Municipality of West Grey,Neustadt Lagoons,Neustat,ON,44.082,-80.9938,operational,3542,Grey,104.784,64.528,39.042,52.392,77.061,76.89,89.52,thousand m3
23688,Township of Minden Hills,Minden Wastewater Treatment Plant,Minden,ON,44.9171,-78.7328,operational,3546,Haliburton,240.477,252.472,208.982,236.205,264.47,203.31600000000003,212.404,thousand m3
23691,Regional Municipality of Waterloo,Ayr Wastewater Treatment Plant,Ayr,ON,43.2813,-80.4651,operational,3530,Waterloo,525.963,480.48199999999997,454.935,480.447,555.972,497.449,440.21569999999997,thousand m3
23692,Regional Municipality of Waterloo,Elmira Wastewater Treatment Plant,Elmira,ON,43.5913,-80.5501,operational,3530,Waterloo,1876.007,1471.473,1173.4830000000002,1342.895,1645.446,1500.616,1349.4539,thousand m3
23693,Regional Municipality of Waterloo,Hespeler Wastewater Treatment Plant,Cambridge,ON,43.4238,-80.3292,operational,3530,Waterloo,2516.9006,2297.3698000000004,2183.6524,2325.7726,2418.7780000000002,2387.9741,2230.5559000000003,thousand m3
23695,Regional Municipality of Waterloo,St. Jacobs Wastewater Treatment Plant,St. Jacobs,ON,43.5354,-80.5485,operational,3530,Waterloo,378.999,352.223,261.90500000000003,310.385,363.928,322.177,326.38800000000003,thousand m3
23696,Regional Municipality of Waterloo,Wellesley Wastewater Treatment Plant,Wellesley,ON,43.4678,-80.7599,operational,3530,Waterloo,292.959,299.1812,245.867,291.65700000000004,333.29900000000004,287.3671,308.7365,thousand m3
23709,Municipality of North Middlesex,Ailsa Craig Wastewater Treatment Plant,Ailsa Craig,ON,43.1483,-81.5473,operational,3539,Middlesex,272.371,228.9373,196.4837,243.9375,255.707,262.6268,247.7584,thousand m3
23710,Municipality of North Middlesex,Parkhill Wastewater Lagoon,Parkhill,ON,43.1759,-81.6892,operational,3539,Middlesex,198.09900000000002,214.70579999999998,168.40200000000002,198.119,234.442,216.3723,272.0093,thousand m3
23711,Municipality of Bluewater,Bayfield Wastewater Lagoons,Bayfield,ON,43.56,-81.6552,operational,3540,Huron,235.24370000000002,529.4056999999999,321.72240000000005,418.10940000000005,451.451,392.2398,421.6564,thousand m3
23712,Municipality of Bluewater,Hensall Wastewater Lagoon,Hensall,ON,43.4205,-81.5081,operational,3540,Huron,141.592,301.6916,65.1209,147.70000000000002,159.953,143.8495,164.2268,thousand m3
23713,Municipality of Bluewater,Zurich Wastewater Lagoons,Zurich,ON,43.4177,-81.6134,operational,3540,Huron,105.2944,160.1816,98.054,88.4118,98.146,93.2205,108.3847,thousand m3
23715,Township of Lucan Biddulph,Lucan Wastewater Treatment Plant,Lucan,ON,43.2038,-81.4125,operational,3539,Middlesex,256.927,272.8286,284.908,338.304,332.726,362.556,389.932,thousand m3
23716,Town of St. Marys,St. Marys Wastewater Treatment Plant,St. Marys,ON,43.251,-81.1498,operational,3531,Perth,1260.9494,1692.441,1493.126,1685.4630000000002,1572.3690000000001,1763.0674000000001,1613.931,thousand m3
23717,County of Brant,Cainsville Wastewater Treatment Lagoon,Cainsville,ON,43.1476,-80.1786,operational,3529,Brant,60.43,70.06700000000001,53.6,26.019000000000002,85.11489999999999,73.68,91.297,thousand m3
23718,County of Brant,Paris Water Pollution Control Plant,Paris,ON,43.179,-80.3742,operational,3529,Brant,1360.432,1395.961,1224.394,1251.7930000000001,1393.138,1421.337,1626.525,thousand m3
23719,County of Brant,St. George Water Pollution Control Plant,St. George,ON,43.2382,-80.2428,operational,3529,Brant,240.574,245.103,219.548,220.368,243.4243,263.1939,271.718,thousand m3
23720,Village of Point Edward WPCP,Village of Point Edward WPCP,Point Edward,ON,42.9975,-82.4196,operational,3538,Lambton,599.244,588.331,442.54859999999996,596.1539,571.4706,615.745,732.3721,thousand m3
23741,Regional Municipality of Durham,Newcastle WPCP,Newcastle,ON,43.8979,-78.5948,operational,3518,Durham,1129.121,1107.598,1010.409,988.268,1165.338,1142.383,1152.7730000000001,thousand m3
23742,Regional Municipality of Durham,Nonquon WPCP,Port Perry,ON,44.12,-78.9713,decommissioned,3518,Durham,1169.066,1166.17,931.1560000000001,846.328,60.982,,,thousand m3
23743,Regional Municipality of Durham,Uxbridge WPCP,Uxbridge,ON,44.1141,-79.1212,operational,3518,Durham,1215.342,1454.396,1340.536,1186.0230000000001,1246.4560000000001,1283.833,1382.6100000000001,thousand m3
23744,Regional Municipality of Durham,Cannington WPCP (Lagoon),Cannington,ON,44.3565,-79.0317,operational,3518,Durham,407.567,372.688,269.47700000000003,315.48900000000003,454.987,348.9282,356.657,thousand m3
23745,Regional Municipality of Durham,Sunderland WPCP (Lagoon),Sunderland,ON,44.1141,-79.1212,operational,3518,Durham,111.428,134.31300000000002,102.11800000000001,82.142,142.919,138.2174,66.768,thousand m3
23746,Regional Municipality of Durham,Lake Simcoe WPCP,Beaverton,ON,44.4172,-79.1642,operational,3518,Durham,709.432,590.3290000000001,478.954,638.274,723.123,640.33,668.0999999999999,thousand m3
23752,Municipality of Thames Centre,Dorchester WWTP,Dorchester,ON,42.975,-81.0314,operational,3539,Middlesex,143.3738,139.032,117.898,117.0838,106.29260000000001,113.1611,118.39930000000001,thousand m3
23753,Corporation of the Township of Huron Kinloss,Ripley WW,Ripley,ON,44.06,-81.5756,operational,3541,Bruce,216.15,198.58,206.969,0.18080000000000002,225.91,155.138,213.214,thousand m3
23756,Corporation of Loyalist Township,Bath Sewage Treatment Plant,Bath,ON,44.1852,-76.7582,operational,3511,Lennox and Addington,398.314,446.67,625.755,673.855,614.2090000000001,575.833,581.345,thousand m3
23757,Corporation of Loyalist Township,Amherstview Water Pollution Control Plant,Amherstview,ON,44.2348,-76.6566,operational,3511,Lennox and Addington,1507.359,1536.1460000000002,1369.06,1251.147,1304.8760000000002,1150.711,1094.6451000000002,thousand m3
23761,Town of Deep River,Deep River Sewage Treatment Plant,Deep River,ON,46.103,-77.4772,operational,3547,Renfrew,930.298,1102.591,957.7307000000001,829.8244,921.0188,893.7023,861.2428,thousand m3
23762,Town of Petawawa,Petawawa Wastewater Treatment Plant,Petawawa,ON,45.9008,-77.2483,operational,3547,Renfrew,2180.223,2023.096,1563.555,1572.3580000000002,1613.333,1625.923,1615.003,thousand m3
23763,Town of Carleton Place,Carleton Place Wastewater Treatment Plant,Carleton Place,ON,45.1458,-76.1383,operational,3509,Lanark,2209.0669000000003,2406.2113,1719.6361,1946.6299,2679.9522,2251.7205,2230.6604,thousand m3
23764,Village of Merrickville-Wolford,Merrickville Wolford Wastewater Treatment Plant,Merrickville,ON,44.9141,-75.8286,operational,3507,Leeds and Grenville,247.2346,267.0958,200.517,204.117,294.8917,215.02100000000002,208.216,thousand m3
23765,Municipality of Mississippi Mills,Mississippi Mills Wastewater Treatment Plant,Almonte,ON,45.2165,-76.2122,operational,3509,Lanark,969.8778000000001,1029.4888,760.4492,853.7911000000001,1312.6746,1201.2467000000001,1223.7077,thousand m3
23766,Town of Renfrew,Renfrew Water Pollution Control Plant,Renfrew,ON,45.4807,-76.6858,operational,3547,Renfrew,2126.1112,3167.3994000000002,1910.787,2099.4120000000003,2669.781,1738.152,1983.5529999999999,thousand m3
23767,Town of Bancroft,Bancroft Wastewater Treatment Facility,Bancroft,ON,45.0493,-77.8339,operational,3512,Hastings,391.747,404.621,327.5176,367.77700000000004,400.321,427.00320000000005,481.1403,thousand m3
23768,Township of Madawaska Valley,Barry's Bay Wastewater Treatment Plant,Barry's Bay,ON,45.4795,-77.6769,operational,3547,Renfrew,159.467,148.969,146.736,140.799,159.739,140.058,148.404,thousand m3
23769,"Township of Killaloe, Hagerty and Richards",Killaloe Wastewater Treatment Plant,Killaloe,ON,45.5647,-77.412,operational,3547,Renfrew,129.846,113.79400000000001,88.451,122.44800000000001,214.281,99.094,106.91,thousand m3
23770,the Corportation of the Town of Penetanguishene,Philip H. Jones Pollution Control Plant,Penetanguishene,ON,44.7719,-79.9389,operational,3543,Simcoe,1131.9544,1356.7620000000002,1193.093,1206.16,1261.7730000000001,1194.721,1175.629,thousand m3
23772,City of Greater Sudbury,Valley East WWTP,Val Caron,ON,46.623,-81.0198,operational,3553,Greater Sudbury / Grand Sudbury,2249.8810000000003,2507.94,2300.745,2273.202,2212.77,1984.047,2413.84,thousand m3
23773,City of Greater Sudbury,Azilda WWTP,Azilda,ON,46.5521,-81.1548,operational,3553,Greater Sudbury / Grand Sudbury,788.335,841.972,692.454,650.976,711.035,641.6270000000001,816.712,thousand m3
23774,City of Greater Sudbury,Chelmsford WWTP,Chelmsford,ON,46.5664,-81.2113,operational,3553,Greater Sudbury / Grand Sudbury,1726.095,1431.499,1510.506,1491.247,1905.901,1272.743,1826.7890000000002,thousand m3
23775,City of Greater Sudbury,Dowling WWTP,Dowling,ON,46.5966,-81.3278,operational,3553,Greater Sudbury / Grand Sudbury,748.7270000000001,768.0989999999999,759.909,756.214,765.725,695.868,755.303,thousand m3
23776,City of Greater Sudbury,Coniston WWTP,Coniston,ON,46.4878,-80.8402,operational,3553,Greater Sudbury / Grand Sudbury,490.57800000000003,469.378,509.14700000000005,679.62,603.069,516.546,631.479,thousand m3
23777,City of Greater Sudbury,Walden WWTP,Walden,ON,46.4041,-81.177,operational,3553,Greater Sudbury / Grand Sudbury,1034.899,1066.633,1123.585,929.2460000000001,1020.089,710.751,1022.479,thousand m3
23778,City of Greater Sudbury,Lively WWTP,Lively,ON,46.432,-81.1436,operational,3553,Greater Sudbury / Grand Sudbury,665.796,625.754,523.3910000000001,670.067,663.307,584.909,418.124,thousand m3
23779,City of Greater Sudbury,Levack WWTP,Levack,ON,46.6415,-81.3973,operational,3553,Greater Sudbury / Grand Sudbury,284.425,257.76599999999996,224.81,216.172,226.319,262.86400000000003,314.817,thousand m3
23780,City of Greater Sudbury,Wahnapitae Sewage Treatment Lagoon,Wahnapitae,ON,46.4761,-80.7957,operational,3553,Greater Sudbury / Grand Sudbury,265.0,280.0,208.5,190.0,180.0,172.695,466.51800000000003,thousand m3
23784,Township of Cavan Monaghan,Millbrook Wastewater Treatment Plant,Millbrook,ON,44.1563,-78.4442,operational,3515,Peterborough,328.798,313.863,197.7768,194.6951,282.703,263.457,291.074,thousand m3
23785,City of Kawartha Lakes,Bobcaygeon Wastewater Treatment Plant,Bobcaygeon,ON,44.5432,-78.5325,operational,3516,Kawartha Lakes,866.2860000000001,875.944,775.673,917.961,1183.0399,1068.3945,918.211,thousand m3
23786,City of Kawartha Lakes,Coboconk Wastewater Treatment Lagoon,Coboconk,ON,44.6604,-78.7994,operational,3516,Kawartha Lakes,59.25,102.74300000000001,74.422,82.6579,73.902,84.91610000000001,149.93810000000002,thousand m3
23787,City of Kawartha Lakes,Fenelon Falls Wastewater Treatment Plant,Fenelon Falls,ON,44.524,-78.734,operational,3516,Kawartha Lakes,322.197,404.553,374.327,382.63620000000003,473.48850000000004,408.2867,415.0369,thousand m3
23788,The Regional Municipality of Halton,Acton Wastewater Treatment Plant,Halton Hills (Acton),ON,43.6278,-80.0225,operational,3524,Halton,1582.088,1425.949,1532.251,1449.748,1522.033,1353.092,1386.8890000000001,thousand m3
23789,The Corporation of the Township of Alfred and Plantagenet,Alfred Wastewater Treatment Lagoon,Alfred,ON,45.5423,-74.887,operational,3502,Prescott and Russell,183.87,163.427,238.388,317.8,109.03,134.178,233.967,thousand m3
23790,The Corporation of the Township of Alfred and Plantagenet,Plantagenet Wastewater Treatment Lagoon,Plantagenet,ON,45.5349,-74.9846,operational,3502,Prescott and Russell,191.418,171.453,168.50300000000001,147.211,210.832,155.548,179.68200000000002,thousand m3
23791,The Corporation of the Township of Alfred and Plantagenet,Wendover Wastewater Treatment Plant,Wendover,ON,45.5679,-75.1179,operational,3502,Prescott and Russell,172.21,198.919,192.73,196.941,238.524,184.866,184.667,thousand m3
23792,City of Clarence-Rockland,Rockland Wastewater Treatment Plant,Rockland,ON,45.5591,-75.2782,operational,3502,Prescott and Russell,1394.7,1508.121,1422.395,1587.464,1843.367,1611.419,1677.524,thousand m3
23793,Township of Champlain,L'Orignal Wastewater Treatment Plant,L'Orignal,ON,45.6272,-74.6778,operational,3502,Prescott and Russell,349.63800000000003,378.87850000000003,369.5301,376.25059999999996,401.65250000000003,333.15200000000004,316.7602,thousand m3
23794,Township of Champlain,Vankleek Hill Wastewater Treatment Lagoon,Vankleek Hill,ON,45.5088,-74.6391,operational,3502,Prescott and Russell,456.38,369.7225,322.837,414.327,549.835,357.229,357.633,thousand m3
23798,The Corporation of the Village of Newbury,Newbury Wastewater Treatment Plant,Newbury,ON,42.6796,-81.8022,operational,3539,Middlesex,30.8876,30.0267,28.552,27.4534,27.4969,32.1006,32.5651,thousand m3
23803,Corporation of the Township of Perth East,Milverton Lagoon,Milverton,ON,43.5674,-80.934,operational,3531,Perth,341.85200000000003,197.024,112.19,229.38,211.55,196.17000000000002,169.4567,thousand m3
23807,The Corporation of the Municipality of Marmora and Lake,Marmora Waste Water Treatment Facility,Marmora,ON,44.4704,-77.675,operational,3512,Hastings,188.9915,211.37,206.0289,237.1619,251.1037,247.4062,258.4691,thousand m3
23810,Regional Municipality of Durham,Pringle Creek WPCP #2,Whitby,ON,43.8649,-78.9294,decommissioned,3518,Durham,1061.166,0.0,,,,,,thousand m3
23814,Chippewas of the Thames First Nation Chief and Council,COTTFN Wastewater Treatment Plant,Muncey,ON,42.8167,-81.4726,operational,3539,Middlesex,39.8207,14.7167,12.8649,15.7082,14.9552,16.613,17.5445,thousand m3
23828,The Corporation of the Town of Goderich,Goderich Water Pollution Control Plant,Goderich,ON,43.7307,-81.7235,operational,3540,Huron,2319.566,2247.179,2099.885,2391.54,2405.308,2118.809,1948.058,thousand m3
23830,Corporation of the City of Pembroke,Pembroke Pollution Control Centre,Pembroke,ON,45.8248,-77.0842,operational,3547,Renfrew,4333.737,5604.979,4909.406,12674.295999999998,5549.907,4204.678,4735.463,thousand m3
23843,Corporation of the Township of Whitewater Region,Cobden Wastewater Treatment Plant,Cobden,ON,45.6255,-76.8754,operational,3547,Renfrew,52.937,248.927,220.942,246.123,312.466,240.62,267.531,thousand m3
23846,The Corporation of the Municipality of Highlands East,Cardiff Sewage Lagoon,Cardiff,ON,44.9885,-78.018,operational,3546,Haliburton,118.717,56.878,48.409,312.863,80.871,52.594800000000006,71.9579,thousand m3
23872,The Corporation of the City of Quinte West,Frankford WWTP,Quinte West,ON,44.2095,-77.5977,operational,3512,Hastings,743.7505,823.572,710.4768,806.0041,909.8351,912.8154,956.8285000000001,thousand m3
23874,The Corporation of the City of Quinte West,Batawa WWTP,Quinte West,ON,44.1642,-77.5885,operational,3512,Hastings,160.4069,199.3559,263.6067,147.1566,218.34140000000002,216.31900000000002,212.4149,thousand m3
23876,City of Greater Sudbury,Capreol Sewage Treatment Lagoon,Capreol,ON,46.7002,-80.931,operational,3553,Greater Sudbury / Grand Sudbury,871.2550000000001,1081.817,876.764,832.1560000000001,674.943,667.7280000000001,685.27,thousand m3
23877,City of Greater Sudbury,Falconbridge WWTP,Falconbridge,ON,46.5679,-80.8064,operational,3553,Greater Sudbury / Grand Sudbury,89.302,88.31200000000001,87.786,129.74200000000002,232.627,132.983,91.387,thousand m3
23897,The Corporation of the Township of Edwardsburgh/Cardinal,Cardinal Wastewater Treatment Plant,Cardinal,ON,44.7905,-75.3726,operational,3507,Leeds and Grenville,448.857,447.74,298.135,328.879,468.403,360.937,333.68000000000006,thousand m3
23898,The Corporation of the Township of Edwardsburgh/Cardinal,Spencerville Lagoons,Spencerville,ON,44.8488,-75.5337,operational,3507,Leeds and Grenville,62.546,97.933,77.2,99.877,128.797,82.952,79.915,thousand m3
23911,The Corporation of the Municipality of Port Hope,Sewage Treatment Plant,Port Hope,ON,43.9519,-78.2687,operational,3514,Northumberland,2002.0890000000002,2171.665,1644.005,1522.809,2341.618,1946.25,2203.924,thousand m3
23929,Corporation of the Municipality of South Huron,Exeter Wastewater Treatment Facility,Exeter,ON,43.3589,-81.4974,operational,3540,Huron,958.512,1616.833,1058.559,1151.1200000000001,1420.844,971.008,1157.189,thousand m3
23934,HMS Host,Mallorytown North OnRoute Service Center,Mallorytown,ON,44.3013,-75.4811,operational,,,,,,,,,,thousand m3
23935,HMS Host,Napanee OnRoute Service Center,Napanee,ON,44.1792,-76.9303,operational,3511,Lennox and Addington,,,,,,,,thousand m3
23949,Chippewas of Rama First Nation,RFN wastewater treatment,Rama,ON,44.6512,-79.3368,operational,3543,Simcoe,385.046,380.222,350.438,339.702,337.058,317.711,220.644,thousand m3
23964,the Corportation of the Town of Penetanguishene,Fox W.P.C.P.,Penetanguishene,ON,44.7841,-79.9347,operational,3543,Simcoe,277.827,284.706,214.274,270.771,283.346,227.7716,203.401,thousand m3
23973,The Corporation of the Township of Pickle Lake,Pickle Lake WPCP,Pickle Lake,ON,51.4918,-90.1812,operational,3560,Kenora,119.46600000000001,152.63500000000002,165.991,154.453,147.269,171.489,184.731,thousand m3
23974,The Corporation of the Township of Schreiber,Schreiber WPCP,Schreiber,ON,48.7993,-87.2717,operational,3558,Thunder Bay,335.73,422.725,430.384,319.85900000000004,411.18800000000005,310.982,326.362,thousand m3
23975,Corporation of the Town of Cobourg,Water Pollution Control Plant #1,Cobourg,ON,43.9599,-78.1825,operational,3514,Northumberland,2877.534,3009.0,3086.8540000000003,2916.34,3555.197,3582.635,3238.188,thousand m3
23976,Corporation of the Town of Cobourg,Water Pollution Control Plant #2,Cobourg,ON,43.9614,-78.1234,operational,3514,Northumberland,1758.3600000000001,1757.666,1787.007,1733.7240000000002,2278.117,1960.851,1907.723,thousand m3
23985,Corporation of the Town of Lakeshore,Comber Wastewater Lagoons,Comber,ON,42.2255,-82.5462,operational,3537,Essex,104.413,130.9702,97.128,113.7202,83.61189999999999,132.5665,92.9554,thousand m3
23986,Corporation of the Town of Lakeshore,Stoney Point Wastewater Lagoons,Stoney Point,ON,42.3016,-82.5142,operational,3537,Essex,274.343,339.41200000000003,357.4494,382.59240000000005,255.5259,413.728,243.07489999999999,thousand m3
24041,The Corporation of the Township of Southgate,Dundalk Wastewater Treatment Plant,Dundalk,ON,44.1533,-80.3836,operational,3542,Grey,505.962,49.4185,389.776,334.685,420.598,404.858,407.659,thousand m3
24046,Grassy Narrows,Grassy Narrows Wastewater Treatment Facility,Grassy Narrows,ON,50.1513,-93.9883,operational,3560,Kenora,,,,,,,,thousand m3
24065,The Regional Municipality of York,Holland Landing WPCP,Holland Landing,ON,44.1194,-79.4844,operational,3519,York,439.354,407.648,265.75,314.91040000000004,445.47990000000004,359.8942,231.9396,thousand m3
24066,Mississaugas of The New Credit First Nation,MNCFN Wastewater,Hagersville,ON,43.0135,-80.0996,operational,3529,Brant,56.642,77.303,93.22980000000001,37.869,139.735,106.217,131.591,thousand m3
24072,Corporation of the Township of Armstrong,Earlton Lagoon,Armstrong,ON,47.7142,-79.8378,operational,3554,Timiskaming,218.543,153.65,200.67000000000002,233.619,233.619,250.013,204.75300000000001,thousand m3
24080,The Regional Municipality of York,Mount Albert WPCP,Mount Albert,ON,44.1557,-79.3048,operational,3519,York,315.831,308.50600000000003,278.1243,294.87440000000004,351.6787,347.3562,321.9178,thousand m3
24081,The Regional Municipality of York,Nobleton WPCP,Nobleton,ON,43.8895,-79.6899,operational,3519,York,265.348,317.77,358.1138,405.3474,507.501,509.186,510.754,thousand m3
24082,The Regional Municipality of York,Schomberg WPCP,Schomberg,ON,44.0085,-79.6675,operational,3519,York,326.705,333.90200000000004,345.409,312.10380000000004,401.944,429.233,384.39,thousand m3
24083,The Regional Municipality of York,Kleinburg WPCP,Kleinburg,ON,43.8367,-79.63,operational,3519,York,428.743,448.832,359.2469,988.8950000000001,442.84000000000003,465.714,507.194,thousand m3
24085,The Regional Municipality of York,Sutton WPCP,Sutton,ON,44.3105,-79.3486,operational,3519,York,606.567,621.62,575.2603,605.0550000000001,684.9897000000001,753.878,682.2,thousand m3
24109,District Municipality of Muskoka,Mountview WWTP,Huntsville,ON,45.3252,-79.2135,operational,3544,Muskoka,940.816,941.2560000000001,985.626,1072.92,1189.518,1010.528,1044.267,thousand m3
24110,The Corporation of the Municipality of South Bruce,Mildmay WWTP,Mildmay,ON,44.0506,-81.1223,operational,3541,Bruce,192.455,187.196,544.994,179.364,167.55,173.61,176.493,thousand m3
24111,District Municipality of Muskoka,Golden Pheasant WWTP,Huntsville,ON,45.3456,-79.1704,operational,3544,Muskoka,1015.515,726.8420000000001,1097.036,669.406,839.838,791.2338,806.2513000000001,thousand m3
24112,The Corporation of the Municipality of South Bruce,Teeswater Formosa WWTP,Teeswater,ON,44.0114,-81.2631,operational,3541,Bruce,36.397,336.4928,378.911,424.625,392.67600000000004,357.594,340.212,thousand m3
24113,District Municipality of Muskoka,Birch Glen WWTP,Baysville,ON,45.1601,-79.1063,operational,3544,Muskoka,81.525,39.862,45.67,48.182500000000005,62.074,45.5662,45.2862,thousand m3
24114,District Municipality of Muskoka,Lagoon Lane WWTP,Bracebridge,ON,45.02,-79.3173,operational,3544,Muskoka,1382.691,1608.343,1274.891,1383.711,1536.77,1258.792,1418.267,thousand m3
24115,District Municipality of Muskoka,Muskoka Beach WWTP,Gravenhurst,ON,44.952,-79.374,operational,3544,Muskoka,1113.3319999999999,1209.26,1031.1399999999999,1153.155,1201.627,1064.504,1072.291,thousand m3
24116,District Municipality of Muskoka,Tower Road WWTP,Bala,ON,45.0086,-79.6187,operational,3544,Muskoka,123.627,136.25400000000002,101.891,105.45400000000001,130.248,116.988,93.952,thousand m3
24117,District Municipality of Muskoka,Medora WWTP,Port Carling,ON,45.1204,-79.5876,operational,3544,Muskoka,180.24,170.797,158.484,178.78300000000002,208.72899999999998,184.623,146.596,thousand m3
24119,District Municipality of Muskoka,Conger WWTP,MacTier,ON,45.1374,-79.785,operational,3544,Muskoka,52.708,60.811,51.74,55.629000000000005,67.366,64.445,64.175,thousand m3
24120,District Municipality of Muskoka,Lone Pine WWTP,Port Severn,ON,44.809,-79.7372,operational,3544,Muskoka,59.969,68.507,63.481,70.83200000000001,85.178,79.68900000000001,76.877,thousand m3
24127,Weenusk First Nation,WFN Lagoon,Peawanuck,ON,55.0182,-85.4172,operational,3560,Kenora,,,,,,,,thousand m3
24128,Six Nations of the Grand River,Six Nations of the Grand River Communal Sewage Treatment System,Ohsweken,ON,43.0692,-80.1095,operational,3529,Brant,0.0,0.0,48.598,0.0,0.0,66.15,84.096,thousand m3
24129,Municipality of Bayham,Port Burwell Wastewater Treatment Plant,Port Burwell,ON,42.6406,-80.8096,operational,3534,Elgin,249.257,230.642,206.303,216.723,233.242,244.522,247.731,thousand m3
24131,Corporation of the Town of Cobalt,Cobalt Wetlands,Cobalt,ON,47.4031,-79.6819,operational,3554,Timiskaming,544.845,1021.116,512.3175,663.442,641.731,370.072,598.746,thousand m3
24132,Corporation of the Municipality of Brockton,Walkerton WWTP,Walkerton,ON,44.1361,-81.16,operational,3541,Bruce,1394.672,1739.202,1239.347,1559.075,1592.2310000000002,1482.064,1351.6109999999999,thousand m3
24187,The Municipality of Lambton Shores,Arkona Sewage Treatment Plant,Lambton Shores,ON,43.0872,-81.828,operational,3538,Lambton,76.69500000000001,64.768,73.43900000000001,81.063,77.024,82.53200000000001,84.586,thousand m3
24189,The Municipality of Lambton Shores,Forest Sewage Treatment Plant,Lambton Shores,ON,43.0902,-82.0166,operational,3538,Lambton,596.127,331.207,440.26,426.811,430.198,419.568,391.41,thousand m3
24191,The Municipality of Lambton Shores,Grand Bend Wastewater Treatment Plant,South Huron,ON,43.2879,-81.75,operational,3540,Huron,293.012,622.363,279.608,182.687,378.064,428.294,388.75,thousand m3
24192,The Municipality of Lambton Shores,Thedford Lagoons,Lambton Shores,ON,43.1715,-81.8631,operational,3538,Lambton,89.22,89.22,89.22,62.454,80.298,110.038,80.298,thousand m3
24193,The Corporation of the Village of Oil Springs,Oil Springs Lagoons,Oil Springs,ON,42.7878,-82.1127,operational,3538,Lambton,88.92,44.160000000000004,46.368,42.036,78.38,42.029,84.057,thousand m3
24201,Corporation of the Town of Rainy River,Rainy River Wastewater Treatment,Rainy River,ON,48.7293,-94.5693,operational,3559,Rainy River,133.068,123.08800000000001,174.305,178.016,190.52,186.163,203.279,thousand m3
24205,Corporation of the Town of Latchford,Latchford Sewage Treatment Plant,Latchford,ON,47.3224,-70.812,operational,,,100.489,104.318,87.635,82.19,86.8579,68.914,88.75800000000001,thousand m3
24237,"Township of MacDonald, Meredith and Aberdeen Additional",Echo Bay Environmental Centre,Echo Bay,ON,46.4882,-84.0743,operational,3557,Algoma,99.001,103.714,87.412,92.584,105.2176,91.5464,97.5463,thousand m3
24238,Town of Blind River,Blind River WPCP,Blind River,ON,46.1839,-82.9541,operational,3557,Algoma,926.5,837.724,676.32,696.7,1054.112,744.274,929.35,thousand m3
24241,Corporation of the Town of Plympton-Wyoming,Lakeshore Area Township of Plympton STP,Camlachie,ON,42.9419,-82.1301,operational,3538,Lambton,442.361,616.92,586.464,541.0160000000001,569.788,590.955,651.665,thousand m3
24256,Township of St. Clair,Courtright WWTP,Courtright,ON,42.8234,-82.4676,operational,3538,Lambton,806.864,1011.476,1020.4670000000001,1240.0140000000001,1259.461,1591.0610000000001,1329.955,thousand m3
24259,Oneida Nation of the Thames,Oneida Village Wastewater Facility,Southowld,ON,42.8162,-81.4087,operational,3539,Middlesex,,,,,,,,thousand m3
24271,Constance Lake First Nation,Constance Lake First Nation,Constance Lake,ON,49.9101,-84.1303,operational,3556,Cochrane,0.0,0.0,0.0,0.0,0.0,0.0,0.0,thousand m3
24283,Webequie First Nation,Webequie First Nation,Webequie,ON,52.984,-87.3568,operational,3560,Kenora,,,,,,,,thousand m3
24284,Norfolk County Public Works & Environmental Services,Port Dover WWTF,Port Dover,ON,42.7879,-80.1856,operational,3528,Haldimand-Norfolk,1545.373,1487.2350000000001,1240.182,1078.2930000000001,1565.016,1547.557,1566.5529999999999,thousand m3
24285,The Corporation of the County of Prince Edward,Picton Wastewater Treatment Facility,Picton,ON,44.006,-77.1391,operational,3513,Prince Edward,1130.8545,1163.146,878.6721,995.8992000000001,1309.5495,1154.3217,1200.5902,thousand m3
24286,The Corporation of the County of Prince Edward,Wellington Wastewater Treatment Facility,Wellington,ON,43.9474,-77.3637,operational,3513,Prince Edward,267.594,305.772,240.4751,255.02820000000003,346.3011,313.5443,350.4759,thousand m3
24287,Norfolk County Public Works & Environmental Services,Delhi WWTF,Delhi,ON,42.8529,-80.5051,operational,3528,Haldimand-Norfolk,533.476,457.961,342.87800000000004,319.727,383.5495,451.03,490.42,thousand m3
24290,Norfolk County Public Works & Environmental Services,Port Rowan WWTF,Port Rowan,ON,42.6222,-80.4649,operational,3528,Haldimand-Norfolk,204.443,271.847,219.10399999999998,225.144,218.8324,220.488,229.65,thousand m3
24292,Norfolk County Public Works & Environmental Services,Waterford WWTF,Waterford,ON,42.9365,-80.2713,operational,3528,Haldimand-Norfolk,381.79,427.20300000000003,380.50600000000003,367.89300000000003,106.376,431.786,496.51300000000003,thousand m3
24299,Chippewas of Kettle and Stony Point First Nation,Kettle & Stony Point Sewage Treatment Facility,Kettle & Stony Point First Nation,ON,43.1787,-82.0053,operational,3538,Lambton,51.441,43.9043,41.3875,42.4592,40.0875,28.8604,20.364,thousand m3
24301,Corporation of the Twp. of St. Joseph,Richard's Landing WWTP,Richard's Landing,ON,46.2927,-84.0304,operational,3557,Algoma,47.808,45.121,42.905,40.382,50.062,50.016000000000005,52.303,thousand m3
24322,The Corporation of the Township of Cramahe,WWT  Plant,Colborne,ON,43.9997,-77.8951,operational,3514,Northumberland,571.982,607.726,431.78499999999997,397.206,475.182,439.2641,421.346,thousand m3
24329,Township of St. Clair,Sombra Lagoons,Sombra,ON,42.7048,-82.4786,operational,3538,Lambton,208.63,214.772,149.597,144.727,179.523,197.736,219.353,thousand m3
24330,Township of St. Clair,Port Lambton Lagoons,Port Lambton,ON,42.65,-82.4924,operational,3538,Lambton,193.75900000000001,194.361,100.483,126.34100000000001,229.705,218.455,283.942,thousand m3
24331,Township of St. Clair,Brigden Lagoons,Brigden,ON,42.809,-82.303,operational,3538,Lambton,111.617,86.83800000000001,43.829,82.755,0.0,122.017,72.212,thousand m3
24341,The Corporation of the Municipality of Kincardine,Bruce Energy Centre Lagoon System,Kincardine,ON,44.303,-81.5799,operational,3541,Bruce,249.293,290.447,334.402,256.329,293.758,256.24,300.122,thousand m3
24343,The Corporation of the Municipality of Kincardine,Kincardine Wastewater Lagoon System,Kincardine,ON,44.1576,-81.6397,operational,3541,Bruce,971.5,1044.5810000000001,833.943,890.3290000000001,1099.752,1111.004,1135.261,thousand m3
24345,Town of Petrolia,Petrolia WPCP,Petrolia,ON,42.8676,-82.1562,operational,3538,Lambton,532.4177000000001,395.27750000000003,577.694,634.5640000000001,505.559,650.4870000000001,665.277,thousand m3
24495,Creg Quay,Creg Quay Limited,Bainsville,ON,45.1708,-74.4292,operational,3501,"Stormont, Dundas and Glengarry",23.056,,,,,,,thousand m3
24619,The Corporation of The Nation Municipality,Limoges Lagoon,Casselman,ON,45.2913,-75.1959,operational,3502,Prescott and Russell,655.718,618.818,483.028,530.85,789.974,488.178,407.88100000000003,thousand m3
24620,The Corporation of The Nation Municipality,St Albert Lagoon,St Albert,ON,45.234,-75.1377,operational,3501,"Stormont, Dundas and Glengarry",141.525,88.842,90.895,169.941,142.137,247.201,214.341,thousand m3
24621,The Corporation of The Nation Municipality,St Isidore Lagoon,St Isidore,ON,45.3914,-74.9399,operational,3502,Prescott and Russell,187.92000000000002,231.612,157.296,197.66400000000002,193.488,311.439,277.008,thousand m3
24749,The Corporation of the Township of Clearview,Creemore Waste Water Treatment Plant,Creemore,ON,44.3205,-80.0966,operational,3543,Simcoe,146.32600000000002,157.345,129.832,130.622,124.112,149.45800000000003,138.148,thousand m3
24751,The Corporation of the Township of Clearview,Stayner Waste Water Treatment Plant,Stayner,ON,44.4319,-80.0854,operational,3543,Simcoe,630.394,556.309,439.0,381.851,484.08500000000004,358.91,587.5020000000001,thousand m3
25227,Municipality of Strathroy-Caradoc,Strathroy WPCP,Strathroy,ON,42.9513,-81.6525,operational,3539,Middlesex,2114.462,1588.609,1438.07,1874.676,1920.636,1919.5790000000002,1867.175,thousand m3
25228,Municipality of Strathroy-Caradoc,Mount Brydges WPCP,Mount Brydges,ON,42.542,-81.2812,operational,,,,,,,45.011,61.344,73.333,thousand m3
25231,Nibinamik First Nation,Nibinamik Wastewater System,Nibinamik,ON,52.7361,-88.5036,operational,3560,Kenora,,,,,,,,thousand m3
25306,Seine river first nation,Seine River First Nation,Mine Center,ON,48.7191,-92.4295,operational,3559,Rainy River,65.0,4.0963,2.4192,2.5191999999999997,2.5774000000000004,2.5191999999999997,2.4303000000000003,thousand m3
25339,Naicatchewenin First Nation,Northwest Bay Sewage Lagoon,Devlin,ON,48.8472,-93.5897,operational,3559,Rainy River,15.318,39.009,13.888,25.7955,15.93,24.917,18.6675,thousand m3
25353,Neskantaga Wastewater System,Sewage System,Neskantaga,ON,52.1943,-88.0419,operational,3560,Kenora,,,,,,,,thousand m3
25355,Municipality of the Town of Perth,Perth Sewage Treatment Lagoons,Perth,ON,44.8923,-76.2154,operational,3509,Lanark,2184.0551,2820.6904000000004,2134.9238,1925.0663,2848.7149,2318.0904,2567.9114,thousand m3
25356,Municipality Of South Dundas,Williamsburg Lagoon,Williamsburg,ON,44.9756,-75.2525,operational,3501,"Stormont, Dundas and Glengarry",33.353,51.889,40.0466,48.641,75.223,17.708000000000002,22.354,thousand m3
25357,Municipality Of South Dundas,Morrisburg Wastewater Treatment Plant,Morrisburg,ON,44.8998,-75.1681,operational,3501,"Stormont, Dundas and Glengarry",775.703,635.1694,749.33,728.573,1086.352,770.483,809.702,thousand m3
25358,Municipality Of South Dundas,Iroquois Wastewater Treatment Plant,Iroquois,ON,44.8494,-75.3021,operational,3501,"Stormont, Dundas and Glengarry",1024.497,1008.129,494.77610000000004,713.2620000000001,1073.5084,704.357,654.902,thousand m3
25360,Township of Tay,Port McNicoll Wastewater Treatment Plant,Port McNicoll,ON,44.7544,-79.8059,operational,3543,Simcoe,346.952,485.98,416.73,451.68,505.09000000000003,446.442,443.092,thousand m3
25361,Township of Tay,Victoria Harbour Wastewater Treatment Plant,Victoria Harbour,ON,44.7549,-79.7612,operational,3543,Simcoe,710.543,800.3507,605.4667,618.9914,675.2645,730.0484,833.241,thousand m3
25362,Town of Arnprior,Arnprior WPCC,Arnprior,ON,45.4374,-76.3494,operational,3547,Renfrew,2551.042,2202.185,2032.491,2115.707,2774.776,1914.946,1616.304,thousand m3
25363,Municipality Of Brighton,Brighton WPCP,Brighton,ON,44.0322,-77.7214,operational,3514,Northumberland,1170.078,1251.267,1024.4750000000001,998.029,1475.486,1161.279,1029.037,thousand m3
25365,Township of Severn,West Shore WWTP,Orillia,ON,44.7032,-79.3956,operational,3543,Simcoe,201.704,255.584,221.88600000000002,272.85900000000004,239.322,349.43600000000004,295.51,thousand m3
25366,Township of Severn,Washago Lagoon,Washago,ON,44.7652,-79.3384,operational,3543,Simcoe,,89.57000000000001,,,,,,thousand m3
25369,The Corporation of The Town of Hanover,Hanover Water Pollution Control Plant,Hanover,ON,44.1562,-81.0368,operational,3542,Grey,1420.989,2051.449,1789.001,1622.653,2116.719,2047.9460000000001,1931.603,thousand m3
25506,The Town of Gananoque,Gananoque Sewage Lagoons,Leeds and Thousand Islands,ON,44.3333,-76.1475,operational,3507,Leeds and Grenville,1357.383,1633.0430000000001,1149.5030000000002,1129.868,1682.808,1384.874,1626.133,thousand m3
25621,The Corporation of the Township of Emo,Emo Wastewater Facility,Emo,ON,48.6378,-93.8427,operational,3559,Rainy River,160.228,140.112,133.349,83.76,0.17300000000000001,72.581,192.624,thousand m3
25626,City of Sarnia,Bright's Grove Sewage Lagoon,Bright's Grove,ON,43.0258,-82.2412,operational,3538,Lambton,633.4350000000001,530.145,540.327,407.52,609.835,612.696,515.541,thousand m3
25709,M'Chigeeng First Nation,Lakeview,M'Chigeeng,ON,45.7877,-82.1549,operational,3551,Manitoulin,0.0,45.018,45.018,90.036,90.036,90.036,0.09,thousand m3
25710,M'Chigeeng First Nation,M'Chigeeng Village,M'Chigeeng,ON,45.8362,-82.165,operational,3551,Manitoulin,0.0,0.0,19.0,38.0,38.0,38.0,0.038,thousand m3
25733,The Corporation of The Township of Red Rock,Red Rock Wastewater Plant,Red Rock,ON,48.9414,-88.2521,operational,3558,Thunder Bay,183.05300000000003,204.39530000000002,225.98600000000002,185.936,167.238,97.6974,135.501,thousand m3
25734,The Municipality of Dutton Dunwich,Dutton Sewage Treatment Plant,Dutton,ON,42.6561,-81.5165,operational,3534,Elgin,122.797,108.959,108.914,114.184,123.617,150.339,149.562,thousand m3
25748,Corporation of the Township of Russell,Embrun Sewage Lagoon,Embrun,ON,45.2758,-75.2387,operational,3502,Prescott and Russell,616.914,619.59,351.69100000000003,650.74,1100.393,633.149,754.318,thousand m3
25749,Corporation of the Township of Russell,Russell Sewage Lagoon,Russell,ON,45.2621,-75.3267,operational,3502,Prescott and Russell,308.98900000000003,302.503,201.078,280.971,492.24,425.66700000000003,311.856,thousand m3
25754,Corporation of the Town of Midland,Midland Waste Water Operations,Midland,ON,44.7575,-79.8745,operational,3543,Simcoe,3.2503,3360.79,3124.36,1460.0908,1552.8841,774.4974,2984.5992,thousand m3
25765,Corporation of the Town of Iroquois Falls,Iroquois Falls Sewage Treatment Plant,Iroquois Falls,ON,48.7726,-80.6694,operational,3556,Cochrane,816.0600000000001,1125.303,974.1690000000001,854.7040000000001,905.2930000000001,746.2570000000001,761.255,thousand m3
25768,Corporation of the Town of Iroquois Falls,Porquis Lagoon,Iroquois Falls,ON,48.703,-80.7795,operational,3556,Cochrane,,,,,,,,thousand m3
25786,Corporation of the Township of South Stormont,Ingleside Waste Water Treatment Plant,Ingleside,ON,44.9961,-74.9706,operational,3501,"Stormont, Dundas and Glengarry",1429.342,1419.163,1270.5900000000001,1274.902,1514.284,1399.652,1545.091,thousand m3
25787,Corporation of the Township of South Stormont,Long Sault Waste Water Treatment Plant,Long Sault,ON,45.0267,-74.8854,operational,3501,"Stormont, Dundas and Glengarry",611.252,560.125,479.871,535.594,684.745,537.9290000000001,582.28,thousand m3
25878,The Corporation of the Township of Manitouwadge,Manitouwadge Wastewater Lagoons,Manitouwadge,ON,49.1172,-85.8655,operational,3558,Thunder Bay,540.309,532.977,508.378,419.994,456.671,553.393,657.997,thousand m3
25941,Hamlet of Thorne,Thorne Wastewater Works,Thorne,ON,46.7007,-79.0986,operational,3548,Nipissing,,,,,,,,thousand m3
25947,Corporation of the Town of Kapuskasing,Kapuskasing Waste Water Pollution Control Plant,Kapuskasing,ON,49.4245,-82.4382,operational,3556,Cochrane,1575.35,2467.36,2189.516,2010.354,1638.727,1356.141,1507.534,thousand m3
25982,Township of Lucan Biddulph,Granton WWTP,Granton,ON,43.2078,-81.3002,operational,3539,Middlesex,41.500600000000006,33.166,32.604,35.181000000000004,34.425000000000004,39.286,42.302,thousand m3
26008,Biinjitiwaabik Zaaging Anishinaabek,Biinjitiwaabik Zaaging Anishinaabek Wastewater Treatment plant,MacDiarmid,ON,49.4369,-88.1292,operational,3558,Thunder Bay,,,,,,,,thousand m3
26010,Town of Amherstburg,Boblo Island Sewage Treatment Plant,Amherstburg,ON,42.0994,-83.118,operational,3537,Essex,,41.1161,50.1223,37.0548,35.665600000000005,44.184200000000004,40.4987,thousand m3
26863,Iskatewizaagegan wwtp,Iskatewizaagegan 39 WWTF,kejick,ON,49.6368,-95.0365,operational,3560,Kenora,,,,,,,,thousand m3
26879,SMSI Travel Centres Inc.,Ingersoll Travel Plaza WWTP,Ingersoll,ON,43.0562,-80.8148,operational,3532,Oxford,38.202200000000005,37.8244,36.9504,36.6319,32.8541,37.4225,10.8099,thousand m3
26916,Naotkamegwanning First Nation,Whitefish Bay Wastewater System,Pawitik,ON,49.4102,-93.9532,operational,3560,Kenora,,,,,16.38,32.94,48.959999999999994,thousand m3
27000,Wabaseemoong Independent Nation Wastewater Treatment Facility,Wabaseemoong WWTP,Whitedog,ON,50.1288,-94.9532,operational,3560,Kenora,,,,,,,,thousand m3
27001,Ochiichag WWT,WWT Lagoon,Dalles,ON,49.9061,-94.5402,operational,3560,Kenora,,,,,,,,thousand m3
27037,Wikwemikong Unceded Indian Reserve,Wikwemikong Wastewater Treatment Plant,Wikwemikong,ON,45.8019,-81.7162,operational,3551,Manitoulin,60.1451,271.35609999999997,252.833,247.66500000000002,290.511,261.866,300.76300000000003,thousand m3
27092,The City of North Bay,North Bay Wastewater Treatment Plant,North Bay,ON,46.3019,-79.462,operational,3548,Nipissing,15086.0,15289.753,13950.409,12392.025,13359.214,11405.491,13032.944,thousand m3
27986,Corporation of Municipality of Arran-Elderslie,Chesley Sewage Works,Chesley,ON,44.2921,-81.1114,operational,3541,Bruce,555.691,520.493,401.758,464.579,509.817,429.19,475.533,thousand m3
27987,Corporation of Municipality of Arran-Elderslie,Tara Sewage Lagoon,Tara,ON,44.4688,-81.1578,operational,3541,Bruce,147.798,120.20400000000001,118.125,110.64,178.974,130.828,151.939,thousand m3
27988,Corporation of Municipality of Arran-Elderslie,Paisley Sewage Treatment Plant,Paisley,ON,44.3157,-81.2717,operational,3541,Bruce,161.928,149.85500000000002,124.404,131.478,147.17000000000002,162.995,119.614,thousand m3
28004,Corp. of the City of Timmins,Whitney-Tisdale WPCP,South Porcupine,ON,48.5034,-81.163,operational,3556,Cochrane,,1739.096,1690.0520000000001,1508.2359999999999,2201.33,2815.856,2929.984,thousand m3
28036,Township of South Glengarry,Lancaster WWTP,Lancaster,ON,45.1468,-74.4925,operational,3501,"Stormont, Dundas and Glengarry",442.57,26.6725,283.113,315.25600000000003,270.137,313.363,330.635,thousand m3
28037,Township of South Glengarry,Glen Walter WWTP,Glen Walter,ON,45.0335,-74.6338,operational,3501,"Stormont, Dundas and Glengarry",209.764,221.313,213.92260000000002,209.338,286.661,265.089,285.4,thousand m3
28038,Township of South Glengarry,Green Valley WWTP,Green Valley,ON,45.2551,-74.5728,operational,3501,"Stormont, Dundas and Glengarry",125.802,143.044,71.2796,96.83,113.86,97.784,104.941,thousand m3
28039,Corp. of the City of Timmins,Bob's Lake Sewage Lagoon,Porcupine,ON,48.49,-81.157,operational,3556,Cochrane,,101.151,73.433,144.26670000000001,63.064,71.20700000000001,99.735,thousand m3
28196,The Corporation of the Municipality of Central Elgin,Port Stanley Wastewater Treatment Facility,Southwold,ON,42.6762,-81.234,operational,3534,Elgin,289.174,396.272,248.162,331.808,462.719,438.9406,568.459,thousand m3
28197,The Corporation of the Municipality of Central Elgin,Belmont Wastewater Treatment Facility,Central Elgin,ON,42.8692,-81.0998,operational,3534,Elgin,256.906,257.937,181.661,207.186,216.721,203.89000000000001,332.622,thousand m3
28254,The Corporation of the Township of Ramara,Lagoon City Sewage Treatment Plant,Ramara,ON,44.5582,-79.2072,operational,3543,Simcoe,519.3240000000001,625.513,507.382,471.70770000000005,561.9490000000001,513.8,519.9250000000001,thousand m3
28420,CORPORATION OF THE TOWN OF HAWKESBURY,Hawkesbury Wastewater Plant,Hawkesbury,ON,45.6119,-74.5964,operational,3502,Prescott and Russell,2404.852,2328.304,2847.672,3497.6270000000004,3138.078,2577.746,2640.286,thousand m3
28444,The Corporation of the Township of North Glengarry,Alexandria Sewage Works,Alexandria,ON,45.3228,-74.6172,operational,3501,"Stormont, Dundas and Glengarry",1594.6485,1295.7899,1123.3825000000002,869.4240000000001,1701.2011000000002,1240.2677,1717.1025,thousand m3
28446,The Corporation of the Township of North Glengarry,Maxville Sewage Works,Maxville,ON,45.317,-74.8883,operational,3501,"Stormont, Dundas and Glengarry",139.8006,246.86860000000001,144.6479,210.88,249.531,237.322,210.512,thousand m3
28471,Township of Bonnechere Valley,Eganville Sewage Treatment Plant,Eganville,ON,45.5369,-77.0955,operational,3547,Renfrew,196.137,213.749,183.422,218.346,229.4088,191.60500000000002,246.99800000000002,thousand m3
28536,The Corporation of the Municipality of Wawa,Wawa Sewage Treatment Facility,Wawa,ON,47.9831,-84.7935,operational,3557,Algoma,766.9250000000001,819.96,913.011,880.898,676.077,758.113,796.572,thousand m3
28594,Village of Casselman,Casselman Waste Treatment,Casselman,ON,45.3256,-75.0792,operational,3502,Prescott and Russell,459.582,449.402,454.983,404.94800000000004,528.542,545.92,525.8,thousand m3
28893,Lac La Croix First Nation,Lac La Croix Lagoon,fort frances,ON,48.3857,-92.1655,operational,3559,Rainy River,,,,,,,,thousand m3
28898,The Corporation of the City of Elliot Lake,Esten Lake Sewage Treatment Plant,Elliot Lake,ON,46.3531,-82.6436,operational,3557,Algoma,2732.339,1894.625,2016.093,2133.82,2415.3360000000002,2411.741,3057.762,thousand m3
28907,Corporation of the Municipality of West Nipissing,Sturgeon Falls,Sturgeon Falls,ON,46.3616,-79.9403,operational,3548,Nipissing,2419.432,2372.195,2007.193,2020.949,2218.764,1981.19,2209.45,thousand m3
29412,Rainy River First Nation,Rainy River First Nation Lagoon,emo,ON,48.6349,-93.9209,operational,3559,Rainy River,13.0,13.0,26.0,13.0,,,,thousand m3
29577,The Corporation of the City of Quinte West,Stonecrest Estates Sewage Treatment Plant,Quinte West (Bayside),ON,44.1231,-77.477,operational,3512,Hastings,,,,,,,,thousand m3
29613,The Corporation of the City of Kingston,Cana Wastewater Treatment Plant,Kingston,ON,44.2994,-76.429,operational,3510,Frontenac,,,,,,46.107600000000005,36.3055,thousand m3
29692,The Corporation of the Municipality of Trent Hills,Warkworth Waste Stabilization Ponds,Warkworth,ON,44.2009,-77.8762,operational,3514,Northumberland,32.85,50.714,44.2575,35.405,44.895,65.33500000000001,52.56,thousand m3
29719,The Corporation of the Municipality of St.-Charles,St. Charles Sewage Lagoon,St. Charles,ON,46.2905,-80.3709,operational,3552,Sudbury,,,,0.0,,0.0,0.0,thousand m3
29761,Municipality of Grey Highlands,Flesherton Wastwater Treatment Plant,Flesherton,ON,44.2626,-80.5644,operational,3542,Grey,46.867000000000004,71.763,57.617000000000004,70.626,69.01,53.613,32.563,thousand m3
29763,Regional Municipality of Durham,Nonquon WPCP (new),Port Perry,ON,44.12,-78.9713,operational,3518,Durham,,,,,1071.52,1073.179,1098.7020000000002,thousand m3
29993,Municipality of Thames Centre,Thorndale Wastewater Treatment Plant,Thorndale,ON,43.0951,-81.1643,operational,3539,Middlesex,,,,,79.25,91.0523,107.13300000000001,thousand m3
30444,Muskrat Dam First Nation (213),Muskrat Dam Lagoon,Muskrat Dam,ON,53.4106,-91.7727,operational,3560,Kenora,,,,,,,,thousand m3
30445,Pikangikum First Nation (208),Pikangikum Lagoon,Pikangikum,ON,51.8073,-93.9662,operational,3560,Kenora,,,,,,,,thousand m3
30468,Kiashke Zaaging Anishinaabek,Gull Bay Wastewater Lagoon,Gull Bay First Nation,ON,49.8063,-89.1153,operational,3558,Thunder Bay,,,,68.0,,,,thousand m3
30492,Deer Lake First Nation,Deer Lake RBC,Deer Lake,ON,52.6188,-94.0507,operational,3560,Kenora,,,,,,,,thousand m3
30493,Poplar Hill First Nation,Poplar Hill RBC Plant,Poplar Hill First Nation,ON,52.0986,-94.3087,operational,3560,Kenora,,,,,,,,thousand m3
30494,Fort Severn First Nation,Fort Severn Lagoon,Fort Severn,ON,56.0004,-87.6289,operational,3560,Kenora,,,,,,,,thousand m3
30495,Keewaywin First Nation,Keewaywin Lagoon,Keewaywin FN,ON,53.0144,-92.7847,operational,3560,Kenora,,,,,,,,thousand m3
30496,North Spirit Lake First Nation,North Spirit Lake RBC,North Spirit Lake,ON,52.5098,-93.019,operational,3560,Kenora,,,,,,,,thousand m3
30578,Aroland First Nation,Aroland Lagoon,Aroland First Nation,ON,50.224,-86.9631,operational,3558,Thunder Bay,,,,,,,,thousand m3
30579,Eabametoong First Nation,Eabametoong Lagoon,Eabametoong,ON,51.5649,-87.8763,operational,3560,Kenora,,,,,,,,thousand m3
30580,Marten Falls First Nation,Marten Falls Lagoon,Marten Falls First Nation,ON,51.6319,-85.9112,operational,3560,Kenora,,,,,,,,thousand m3
30794,Ontario Infrastructure and Lands Corporation,Waypoint Wastewater Treatment Plant,Penetanguishene,ON,44.8059,-79.9301,operational,3543,Simcoe,,,,,,56.3193,68.92750000000001,thousand m3
36815,Wauzhushk Onigum,Rat Portage Waste Water RBC,Wauzhushk Onigum First Nation,ON,49.4435,-94.2854,operational,3560,Kenora,,,,,,,47.447,thousand m3
43860,Township of East-Hawkesbury,Chute  Blondeau WPCP,Chute  Blondeau,ON,45.588,-74.465,operational,3502,Prescott and Russell,,,,,,9.111,23.977,thousand m3
43869,Attawapiskat First Nation,Attawapiskat Lagoon,Attawapiskat,ON,52.9314,-82.9362,operational,3560,Kenora,,,,,,,,thousand m3
43870,Fort Albany First Nation,FAFN Lagoon,Fort Albany,ON,52.2073,-81.6677,operational,3556,Cochrane,,,,,,,,thousand m3
43872,Kashechewan First Nation,Kashchewan Lagoon,Kashechewan,ON,52.3022,-81.6265,operational,3560,Kenora,,,,,,,,thousand m3
48897,Cat Lake First Nation,Cat Lake,Cat Lake,ON,51.7291,-91.8094,operational,3560,Kenora,,,,,,,,thousand m3
49896,Sachigo Lake First Nation,Sachigo First Nation,Sachigo First Nation,ON,53.8799,-92.1692,operational,3560,Kenora,,,,,,65.0,65.0,thousand m3
51896,Bearskin Lake First Nation,Bearskin Lake Lagoon,Bearskin Lake,ON,53.9307,-90.9845,operational,3560,Kenora,,,,,,,,thousand m3
51897,North Caribou First Nation,North Caribou Lagoon,North Caribou Lake,ON,52.9616,-91.3393,operational,3560,Kenora,,,,,,0.0,0.32,thousand m3
53956,Sandy Lake FN,Sandy Lake FN Lagoon,Sandy Lake,ON,53.0601,-93.2982,operational,3560,Kenora,,,,,,,,thousand m3
56359,Town of Mattawa,Mattawa Wastewater Treatment Lagoon,Mattawa,ON,46.3118,-78.731,operational,3548,Nipissing,,,,,,,366.741,thousand m3
56861,Big Trout Lake First Nation,K.I. Wastewater System,Big Trout Lake,ON,53.8222,-89.9098,operational,3560,Kenora,,,,,,,,thousand m3
58462,Regional Municipality of Niagara,Niagara-on-the-Lake WWTP,Niagara-on-the-Lake,ON,43.2545,-79.1118,operational,3526,Niagara,,,,,,,,thousand m3
58813,Town of Amherstburg,Big Creek Marsh STP,Amherstburg,ON,42.0389,-83.0781,operational,3537,Essex,,,,,,,42.4623,thousand m3
23847,,,,,,,,,,0.0,,,,,,,thousand m3
25662,,,,,,,,,,0.0,0.0,,,,,,thousand m3
